{
  "type": "FeatureCollection",
  "features": [
    {
      "geometry": {
        "type": "Point",
        "coordinates": [
          121.38513100518,
          25.031366153167095
        ]
      },
      "type": "Feature",
      "id": "relation/2663591",
      "properties": {
        "changeset": "38060045",
        "amenity": "university",
        "uid": "274857",
        "operator": "教育部",
        "id": "relation/2663591",
        "addr:housenumber": "250",
        "addr:district": "龜山區",
        "wikipedia": "zh:國立體育大學",
        "name": "國立體育大學",
        "version": "3",
        "type": "multipolygon",
        "website": "http://www.ntsu.edu.tw/",
        "fax": "+886 3 328 4047",
        "timestamp": "2016-03-25T10:57:46Z",
        "addr:full": "33301桃園市龜山區文化一路250號",
        "phone": "+886 3 328 3201",
        "user": "Supaplex",
        "old_name": "國立體育學院",
        "ref": "NTSU",
        "addr:street": "文化一路",
        "name:en": "National Taiwan Sport University",
        "addr:city": "桃園市",
        "name:zh": "國立體育大學",
        "addr:postcode": "33301",
        "addr:country": "TW"
      }
    },
    {
      "geometry": {
        "type": "Point",
        "coordinates": [
          120.20739973834633,
          22.983888656656486
        ]
      },
      "type": "Feature",
      "id": "relation/2878946",
      "properties": {
        "changeset": "25356789",
        "amenity": "university",
        "uid": "2324346",
        "timestamp": "2014-09-10T21:08:23Z",
        "wikipedia": "zh:國立臺南大學",
        "version": "2",
        "user": "tajvano",
        "type": "multipolygon",
        "id": "relation/2878946",
        "name": "國立臺南大學府城校區"
      }
    },
    {
      "geometry": {
        "type": "Point",
        "coordinates": [
          121.57512326131925,
          24.982167374756376
        ]
      },
      "type": "Feature",
      "id": "relation/2946719",
      "properties": {
        "changeset": "39936843",
        "amenity": "university",
        "uid": "274857",
        "operator": "教育部",
        "id": "relation/2946719",
        "addr:housenumber": "64",
        "addr:district": "文山區",
        "wikipedia": "zh:國立政治大學",
        "name": "國立政治大學",
        "version": "8",
        "name:zh": "國立政治大學",
        "type": "multipolygon",
        "website": "http://www.nccu.edu.tw/",
        "timestamp": "2016-06-10T18:14:47Z",
        "addr:full": "11605臺北市文山區指南路二段64號",
        "phone": "+886 2 2939 3091",
        "user": "Supaplex",
        "ref": "A09520000Q",
        "addr:street": "指南路二段",
        "name:en": "National Chengchi University",
        "addr:city": "臺北市",
        "addr:postcode": "11605",
        "addr:country": "TW"
      }
    },
    {
      "geometry": {
        "type": "Point",
        "coordinates": [
          120.37149815384633,
          22.614513666119464
        ]
      },
      "type": "Feature",
      "id": "relation/3664656",
      "properties": {
        "addr:housenumber": "1",
        "changeset": "39338761",
        "amenity": "university",
        "name:zh": "陸軍軍官學校",
        "alt_name": "黃埔營區",
        "uid": "165061",
        "timestamp": "2016-05-15T20:36:02Z",
        "addr:street": "維武路",
        "addr:full": "高雄市鳳山區維武路1號",
        "wikipedia": "zh:中華民國陸軍軍官學校",
        "official_name": "中華民國陸軍軍官學校",
        "addr:city": "鳳山區",
        "version": "8",
        "user": "mapper999",
        "landuse": "military",
        "type": "multipolygon",
        "id": "relation/3664656",
        "name": "陸軍軍官學校"
      }
    },
    {
      "geometry": {
        "type": "Point",
        "coordinates": [
          121.43516374863769,
          25.176978263669522
        ]
      },
      "type": "Feature",
      "id": "relation/3705172",
      "properties": {
        "website": "http://www.au.edu.tw/",
        "changeset": "38818234",
        "fax": "+886 2 2621 2121",
        "uid": "274857",
        "addr:district": "淡水區",
        "timestamp": "2016-04-23T18:04:25Z",
        "addr:full": "25103新北市淡水區真理街32號",
        "wikipedia": "zh:真理大學",
        "amenity": "university",
        "addr:city": "新北市",
        "version": "4",
        "user": "Supaplex",
        "addr:postcode": "25103",
        "addr:housenumber": "32",
        "addr:street": "真理街",
        "type": "multipolygon",
        "id": "relation/3705172",
        "name": "真理大學"
      }
    },
    {
      "geometry": {
        "type": "Point",
        "coordinates": [
          121.54052522724182,
          25.01700768875305
        ]
      },
      "type": "Feature",
      "id": "relation/4007738",
      "properties": {
        "changeset": "42942613",
        "amenity": "university",
        "uid": "274857",
        "name:ko": "국립 타이완 대학",
        "alt_name": "臺灣大學;國立台灣大學;台灣大學",
        "id": "relation/4007738",
        "name:ja": "国立台湾大学",
        "addr:housenumber": "1",
        "name": "國立臺灣大學",
        "wikipedia": "zh:國立臺灣大學",
        "name:de": "Staatliche Universität Taiwan",
        "name:fr": "Université nationale de Taïwan",
        "version": "9",
        "name:zh-py": "Guólì Táiwān Dàxué",
        "name:zh": "國立臺灣大學",
        "description": "國立臺灣大學公館校區",
        "short_name": "臺大;台大",
        "timestamp": "2016-10-16T18:23:55Z",
        "user": "Supaplex",
        "old_name": "台北帝國大學",
        "addr:street": "羅斯福路四段",
        "name:en": "National Taiwan University",
        "addr:city": "臺北市",
        "type": "multipolygon",
        "addr:postcode": "106"
      }
    },
    {
      "geometry": {
        "type": "Point",
        "coordinates": [
          121.54637709817908,
          24.989373444043796
        ]
      },
      "type": "Feature",
      "id": "relation/4054406",
      "properties": {
        "changeset": "35045090",
        "amenity": "university",
        "uid": "251543",
        "alt_name": "景美溪大學",
        "id": "relation/4054406",
        "addr:housenumber": "1",
        "addr:district": "文山區",
        "wikipedia": "zh:世新大學",
        "name": "世新大學",
        "version": "3",
        "type": "multipolygon",
        "start_date": "1956",
        "website": "http://www.shu.edu.tw",
        "short_name": "SHU",
        "timestamp": "2015-11-02T22:33:36Z",
        "addr:full": "台北市文山區木柵路一段17巷1號",
        "phone": "+886-2-22368225",
        "user": "ChrissW-R1",
        "old_name": "世界新聞職業學校",
        "addr:street": "木柵路一段17巷",
        "name:en": "Shih Hsin University",
        "addr:city": "台北市"
      }
    },
    {
      "geometry": {
        "type": "Point",
        "coordinates": [
          120.68902018336387,
          24.149880388168338
        ]
      },
      "type": "Feature",
      "id": "relation/4193750",
      "properties": {
        "changeset": "26768867",
        "amenity": "university",
        "name:en": "National Taiwan University of Sport",
        "uid": "2439495",
        "timestamp": "2014-11-14T01:48:52Z",
        "version": "1",
        "user": "KnMoon",
        "type": "multipolygon",
        "id": "relation/4193750",
        "name": "國立臺灣體育運動大學"
      }
    },
    {
      "geometry": {
        "type": "Point",
        "coordinates": [
          121.50954638601056,
          25.03832200453485
        ]
      },
      "type": "Feature",
      "id": "relation/4277687",
      "properties": {
        "website": "http://www.scu.edu.tw/",
        "changeset": "37980459",
        "amenity": "university",
        "name:en": "Soochow University Downtown Campus",
        "uid": "274857",
        "addr:district": "中正區",
        "timestamp": "2016-03-21T16:43:14Z",
        "id": "relation/4277687",
        "addr:full": "10048臺北市中正區貴陽街一段56號",
        "wikipedia": "zh:東吳大學 (台灣)",
        "addr:city": "臺北市",
        "phone": "+886-2-2311-1531",
        "version": "7",
        "user": "Supaplex",
        "addr:postcode": "10048",
        "operator": "東吳大學",
        "addr:housenumber": "56",
        "addr:street": "貴陽街一段",
        "type": "multipolygon",
        "addr:country": "TW",
        "name": "東吳大學城中校區"
      }
    },
    {
      "geometry": {
        "type": "Point",
        "coordinates": [
          121.5320949116432,
          25.028474812136224
        ]
      },
      "type": "Feature",
      "id": "relation/4601534",
      "properties": {
        "addr:housenumber": "6",
        "changeset": "32429644",
        "amenity": "university",
        "uid": "274857",
        "addr:district": "大安區",
        "timestamp": "2015-07-05T16:05:07Z",
        "description": "藝術史研究所、設計系",
        "addr:full": "106台北市大安區青田街5巷6號",
        "addr:city": "台北市",
        "version": "2",
        "user": "Supaplex",
        "addr:postcode": "106",
        "addr:street": "青田街5巷",
        "type": "multipolygon",
        "id": "relation/4601534",
        "name": "師大青田校區"
      }
    },
    {
      "geometry": {
        "type": "Point",
        "coordinates": [
          121.55480491924443,
          24.99814357112475
        ]
      },
      "type": "Feature",
      "id": "relation/4602291",
      "properties": {
        "website": "http://www.cute.edu.tw/",
        "changeset": "39487226",
        "amenity": "university",
        "name:en": "China University of Technology",
        "uid": "274857",
        "addr:district": "文山區",
        "timestamp": "2016-05-22T13:20:21Z",
        "addr:housenumber": "56",
        "wikipedia": "zh:中國科技大學 (台灣)",
        "addr:city": "臺北市",
        "phone": "+886 2 2931 3416",
        "version": "3",
        "user": "Supaplex",
        "addr:postcode": "11695",
        "name:zh": "中國科技大學",
        "addr:street": "興隆路三段",
        "type": "multipolygon",
        "id": "relation/4602291",
        "name": "中國科技大學"
      }
    },
    {
      "geometry": {
        "type": "Point",
        "coordinates": [
          121.56094724626041,
          24.99950877984104
        ]
      },
      "type": "Feature",
      "id": "relation/4602300",
      "properties": {
        "website": "http://www.tpa.edu.tw/",
        "changeset": "40896913",
        "amenity": "university",
        "name:en": "Taiwan Police College",
        "uid": "4270873",
        "addr:district": "文山區",
        "timestamp": "2016-07-20T13:56:52Z",
        "addr:housenumber": "153",
        "wikipedia": "zh:臺灣警察專科學校",
        "addr:city": "臺北市",
        "phone": "+886-2-2230-8512~4",
        "version": "3",
        "user": "david082321",
        "addr:postcode": "11696",
        "operator": "內政部警政署",
        "name:zh": "臺灣警察專科學校",
        "addr:street": "興隆路三段",
        "type": "multipolygon",
        "id": "relation/4602300",
        "name": "臺灣警察專科學校"
      }
    },
    {
      "geometry": {
        "type": "Point",
        "coordinates": [
          121.53885206795646,
          25.05654337097388
        ]
      },
      "type": "Feature",
      "id": "relation/4602518",
      "properties": {
        "addr:housenumber": "69",
        "changeset": "39314552",
        "amenity": "university",
        "uid": "274857",
        "addr:district": "中山區",
        "timestamp": "2016-05-14T16:08:38Z",
        "addr:full": "臺北市中山區建國北路二段69號",
        "addr:city": "臺北市",
        "version": "3",
        "user": "Supaplex",
        "old_name": "國立臺北大學合江校區",
        "operator": "國立臺北大學",
        "addr:street": "建國北路二段",
        "type": "multipolygon",
        "id": "relation/4602518",
        "name": "國立臺北大學建國校區"
      }
    },
    {
      "geometry": {
        "type": "Point",
        "coordinates": [
          121.50976559669532,
          24.951424837888062
        ]
      },
      "type": "Feature",
      "id": "relation/4605398",
      "properties": {
        "website": "http://www.just.edu.tw/",
        "changeset": "43277947",
        "amenity": "university",
        "name:en": "Jinwen University of Science and Technology",
        "int_name": "Jinwen University of Science and Technology",
        "uid": "274857",
        "addr:district": "新店區",
        "timestamp": "2016-10-30T06:49:53Z",
        "addr:full": "23154新北市新店區安忠路99號",
        "wikipedia": "zh:景文科技大學",
        "addr:city": "新北市",
        "phone": "+886-2-8212-2000",
        "version": "3",
        "user": "Supaplex",
        "addr:postcode": "23154",
        "id": "relation/4605398",
        "name:zh": "景文科技大學",
        "addr:street": "安忠路",
        "type": "multipolygon",
        "start_date": "1986",
        "name": "景文科技大學"
      }
    },
    {
      "geometry": {
        "type": "Point",
        "coordinates": [
          120.484914921023,
          23.468178831119456
        ]
      },
      "type": "Feature",
      "id": "relation/4610252",
      "properties": {
        "addr:housenumber": "300",
        "changeset": "38954037",
        "amenity": "university",
        "uid": "3888459",
        "timestamp": "2016-04-28T15:12:19Z",
        "wheelchair": "limited",
        "addr:city": "嘉義市東區鹿寮里",
        "version": "3",
        "user": "何碩桓",
        "addr:postcode": "600",
        "addr:street": "學府路",
        "type": "multipolygon",
        "id": "relation/4610252",
        "name": "嘉義大學蘭潭校區"
      }
    },
    {
      "geometry": {
        "type": "Point",
        "coordinates": [
          121.54551923029193,
          25.084689235928565
        ]
      },
      "type": "Feature",
      "id": "relation/4628912",
      "properties": {
        "website": "http://www2.usc.edu.tw/usc/tw/client/index.asp",
        "changeset": "41006910",
        "amenity": "university",
        "name:en": "Shih Chien University",
        "uid": "4270873",
        "addr:district": "中山區",
        "timestamp": "2016-07-25T09:31:49Z",
        "addr:full": "10462臺北市中山區大直街70號",
        "wikipedia": "zh:實踐大學",
        "addr:city": "臺北市",
        "phone": "+886-2-2538-1111",
        "version": "3",
        "user": "david082321",
        "addr:postcode": "10462",
        "id": "relation/4628912",
        "addr:housenumber": "70",
        "name:zh": "實踐大學台北校區",
        "addr:street": "大直街",
        "type": "multipolygon",
        "addr:country": "TW",
        "name": "實踐大學台北校區"
      }
    },
    {
      "geometry": {
        "type": "Point",
        "coordinates": [
          121.54000455631979,
          25.078532898556542
        ]
      },
      "type": "Feature",
      "id": "relation/4628913",
      "properties": {
        "changeset": "29097775",
        "amenity": "university",
        "uid": "274857",
        "timestamp": "2015-02-25T18:28:03Z",
        "official_name": "臺北市立大學大直校區",
        "version": "1",
        "user": "Supaplex",
        "type": "multipolygon",
        "id": "relation/4628913",
        "name": "市北大大直校區"
      }
    },
    {
      "geometry": {
        "type": "Point",
        "coordinates": [
          121.52817053149532,
          25.08614976167442
        ]
      },
      "type": "Feature",
      "id": "relation/4628917",
      "properties": {
        "addr:housenumber": "250",
        "changeset": "29097775",
        "amenity": "university",
        "uid": "274857",
        "timestamp": "2015-02-25T18:28:04Z",
        "addr:housename": "銘傳大學台北校區",
        "addr:city": "台北市",
        "version": "1",
        "user": "Supaplex",
        "addr:postcode": "11103",
        "addr:street": "中山北路五段",
        "type": "multipolygon",
        "id": "relation/4628917",
        "name": "銘傳大學台北校區"
      }
    },
    {
      "geometry": {
        "type": "Point",
        "coordinates": [
          121.54589929517147,
          25.0943046062071
        ]
      },
      "type": "Feature",
      "id": "relation/4628958",
      "properties": {
        "website": "http://www.scu.edu.tw/",
        "changeset": "43721851",
        "amenity": "university",
        "name:en": "Soochow University (Taiwan)",
        "uid": "4855694",
        "addr:district": "士林區",
        "timestamp": "2016-11-17T08:55:11Z",
        "description": "外雙溪校區",
        "addr:full": "臺北市士林區臨溪路70號",
        "wikipedia": "zh:東吳大學 (臺灣)",
        "addr:city": "臺北市",
        "phone": "+886-2-2881-9471",
        "version": "5",
        "user": "andrewyu",
        "addr:housenumber": "70",
        "addr:street": "臨溪路",
        "type": "multipolygon",
        "id": "relation/4628958",
        "name": "東吳大學"
      }
    },
    {
      "geometry": {
        "type": "Point",
        "coordinates": [
          121.51471121908453,
          25.12338067484616
        ]
      },
      "type": "Feature",
      "id": "relation/4630264",
      "properties": {
        "website": "http://web.ym.edu.tw",
        "changeset": "41970525",
        "amenity": "university",
        "uid": "274857",
        "addr:district": "北投區",
        "timestamp": "2016-09-07T04:48:40Z",
        "addr:full": "11221台北市北投區立農街二段155號",
        "wikipedia": "zh:國立陽明大學",
        "addr:city": "台北市",
        "phone": "+886-2-2826-7000",
        "version": "9",
        "user": "Supaplex",
        "addr:postcode": "11221",
        "addr:housenumber": "155",
        "addr:street": "立農街二段",
        "type": "multipolygon",
        "id": "relation/4630264",
        "name": "國立陽明大學"
      }
    },
    {
      "geometry": {
        "type": "Point",
        "coordinates": [
          121.46368413003025,
          25.02105376277688
        ]
      },
      "type": "Feature",
      "id": "relation/4634656",
      "properties": {
        "changeset": "36334256",
        "amenity": "university",
        "uid": "1215520",
        "type": "multipolygon",
        "id": "relation/4634656",
        "addr:housenumber": "313",
        "addr:district": "板橋區",
        "wikipedia": "zh:致理科技大學",
        "name": "致理科技大學",
        "version": "3",
        "name:zh": "致理科技大學",
        "website": "http://portal.chihlee.edu.tw/",
        "timestamp": "2016-01-03T10:01:41Z",
        "addr:full": "22050新北市板橋區文化路一段313號",
        "phone": "+886 2 2257 6167;+886 2 2257 6168",
        "user": "bananatw",
        "old_name": "致理商業專科學校;致理技術學院",
        "addr:street": "文化路一段",
        "name:en": "Chihlee University of Technology",
        "addr:city": "新北市",
        "addr:postcode": "22050",
        "addr:country": "TW"
      }
    },
    {
      "geometry": {
        "type": "Point",
        "coordinates": [
          121.44889675350166,
          25.00621971474863
        ]
      },
      "type": "Feature",
      "id": "relation/4636231",
      "properties": {
        "changeset": "29159761",
        "amenity": "university",
        "uid": "274857",
        "timestamp": "2015-02-28T16:29:14Z",
        "version": "1",
        "user": "Supaplex",
        "type": "multipolygon",
        "id": "relation/4636231",
        "name": "國立台灣藝術大學"
      }
    },
    {
      "geometry": {
        "type": "Point",
        "coordinates": [
          121.5393953571445,
          25.13599993960467
        ]
      },
      "type": "Feature",
      "id": "relation/4637781",
      "properties": {
        "website": "https://www.pccu.edu.tw",
        "changeset": "41993632",
        "amenity": "university",
        "name:en": "Chinese Culture University",
        "uid": "274857",
        "timestamp": "2016-09-08T04:01:58Z",
        "addr:full": "11114臺北市陽明山華岡路55號",
        "wikipedia": "zh:中國文化大學",
        "addr:city": "臺北市",
        "phone": "+886 2 2861 0511;+886 2 2861 1801",
        "version": "2",
        "wikidata": "Q707140",
        "user": "Supaplex",
        "addr:postcode": "11114",
        "id": "relation/4637781",
        "addr:housenumber": "55",
        "name:zh": "中國文化大學",
        "addr:street": "華岡路",
        "type": "multipolygon",
        "addr:place": "陽明山",
        "name": "中國文化大學"
      }
    },
    {
      "geometry": {
        "type": "Point",
        "coordinates": [
          121.525446738071,
          25.042383517795432
        ]
      },
      "type": "Feature",
      "id": "relation/4638736",
      "properties": {
        "changeset": "36341314",
        "amenity": "university",
        "uid": "1215520",
        "operator": "教育部",
        "id": "relation/4638736",
        "addr:housenumber": "321",
        "addr:district": "中正區",
        "wikipedia": "zh:國立臺北商業大學",
        "name": "國立臺北商業大學",
        "version": "3",
        "type": "multipolygon",
        "website": "http://www.ntub.edu.tw/",
        "old_ref": "0142",
        "timestamp": "2016-01-03T16:08:50Z",
        "addr:full": "10051臺北市中正區濟南路一段321號",
        "phone": "+886 2 2393 5263",
        "user": "bananatw",
        "old_name": "國立臺北商業技術學院",
        "ref": "0051",
        "addr:street": "濟南路一段",
        "name:en": "National Taipei University of Business",
        "addr:city": "臺北市",
        "name:zh": "國立臺北商業大學",
        "addr:postcode": "10051",
        "addr:country": "TW"
      }
    },
    {
      "geometry": {
        "type": "Point",
        "coordinates": [
          121.52503651556856,
          25.041056081245973
        ]
      },
      "type": "Feature",
      "id": "relation/4639125",
      "properties": {
        "changeset": "29183707",
        "amenity": "university",
        "name:en": "National Taiwan University Law and Social Sciences Campus",
        "alt_name": "國立台灣大學法律暨社會科學院",
        "uid": "274857",
        "short_name": "台大法社學院",
        "timestamp": "2015-03-01T18:52:38Z",
        "version": "1",
        "user": "Supaplex",
        "type": "multipolygon",
        "id": "relation/4639125",
        "name": "台大社會科學院"
      }
    },
    {
      "geometry": {
        "type": "Point",
        "coordinates": [
          121.52333695794745,
          25.041470061230367
        ]
      },
      "type": "Feature",
      "id": "relation/4639128",
      "properties": {
        "changeset": "29183707",
        "amenity": "university",
        "uid": "274857",
        "timestamp": "2015-03-01T18:52:39Z",
        "version": "1",
        "user": "Supaplex",
        "type": "multipolygon",
        "id": "relation/4639128"
      }
    },
    {
      "geometry": {
        "type": "Point",
        "coordinates": [
          121.58223604598714,
          24.988973745270975
        ]
      },
      "type": "Feature",
      "id": "relation/4655427",
      "properties": {
        "website": "http://iir.nccu.edu.tw/",
        "changeset": "37124526",
        "fax": "+886-2-29378606",
        "uid": "274857",
        "timestamp": "2016-02-10T13:31:53Z",
        "addr:full": "台北市文山區萬壽路64號",
        "wikipedia": "zh:國立政治大學國際關係研究中心",
        "amenity": "university",
        "id": "relation/4655427",
        "phone": "+886-2-82377277",
        "version": "2",
        "user": "Supaplex",
        "addr:housenumber": "64",
        "addr:street": "萬壽路",
        "type": "multipolygon",
        "email": "iir@nccu.edu.tw",
        "name": "政大國關中心"
      }
    },
    {
      "geometry": {
        "type": "Point",
        "coordinates": [
          121.51984626813034,
          25.11784121861698
        ]
      },
      "type": "Feature",
      "id": "relation/4657786",
      "properties": {
        "website": "http://www.ntunhs.edu.tw/",
        "changeset": "32819214",
        "amenity": "university",
        "uid": "274857",
        "addr:district": "北投區",
        "addr:full:en": "No.365,Ming-te Road,Peitou District,Taipei City",
        "timestamp": "2015-07-23T08:21:42Z",
        "addr:full": "台北市北投區明德路365號",
        "wikipedia": "zh:國立臺北護理健康大學",
        "addr:city": "台北市",
        "phone": "+886-2-28227101",
        "version": "2",
        "user": "Supaplex",
        "addr:postcode": "11219",
        "addr:housenumber": "365",
        "addr:street": "明德路",
        "type": "multipolygon",
        "id": "relation/4657786",
        "name": "國立台北護理健康大學"
      }
    },
    {
      "geometry": {
        "type": "Point",
        "coordinates": [
          121.56591432272599,
          25.08725036180832
        ]
      },
      "type": "Feature",
      "id": "relation/4730984",
      "properties": {
        "website": "http://www.takming.edu.tw/",
        "changeset": "30228197",
        "amenity": "university",
        "name:en": "Takming University of Science and Technology",
        "uid": "274857",
        "addr:full:en": "No.56, Sec.1, Huanshan Rd., Neihu District,Taipei City, Taiwan 11451, R.O.C.",
        "timestamp": "2015-04-15T06:30:42Z",
        "addr:full": "11451台北市環山路一段56號",
        "wikipedia": "zh:德明財經科技大學",
        "addr:city": "台北市",
        "phone": "+886-2-2658-5801",
        "version": "2",
        "postal_code": "11451",
        "user": "Supaplex",
        "old_name": "德明商專",
        "addr:housenumber": "56",
        "addr:street": "環山路一段",
        "type": "multipolygon",
        "id": "relation/4730984",
        "name": "德明財經大學"
      }
    },
    {
      "geometry": {
        "type": "Point",
        "coordinates": [
          121.53559589707643,
          25.043044647889097
        ]
      },
      "type": "Feature",
      "id": "relation/4790876",
      "properties": {
        "changeset": "39339037",
        "amenity": "university",
        "uid": "165061",
        "official_name:en": "National Taipei University of Technology",
        "official_name": "國立臺北科技大學",
        "alt_name": "台北科技大學",
        "id": "relation/4790876",
        "addr:housenumber": "1",
        "addr:district": "大安區",
        "wikipedia": "zh:國立臺北科技大學",
        "name": "臺北科技大學",
        "version": "5",
        "type": "multipolygon",
        "website": "http://www1.ntut.edu.tw/",
        "short_name": "NTUT",
        "timestamp": "2016-05-15T20:54:25Z",
        "addr:full": "臺北市大安區忠孝東路三段1號",
        "phone": "+886-2-2771-2171",
        "user": "mapper999",
        "old_name": "台北工專",
        "addr:street": "忠孝東路三段",
        "addr:city": "臺北市"
      }
    },
    {
      "geometry": {
        "type": "Point",
        "coordinates": [
          121.52769966394384,
          25.030402994997168
        ]
      },
      "type": "Feature",
      "id": "relation/4790906",
      "properties": {
        "changeset": "30231408",
        "amenity": "university",
        "uid": "274857",
        "official_name:en": "Center for Public and Business Administration Education",
        "official_name": "國立政治大學公共行政及企業管理教育中心",
        "id": "relation/4790906",
        "addr:housenumber": "187",
        "addr:district": "大安區",
        "wikipedia": "zh:國立政治大學公共行政及企業管理教育中心",
        "name": "政大公企中心",
        "version": "1",
        "type": "multipolygon",
        "website": "http://w3.cpbae.nccu.edu.tw/",
        "short_name": "政大公企中心",
        "timestamp": "2015-04-15T09:39:57Z",
        "addr:full": "臺北市大安區金華街187號",
        "phone": "+886-2-23419151",
        "user": "Supaplex",
        "short_name2": "公企中心",
        "short_name:en": "NCCU CPBAE",
        "addr:street": "金華街",
        "addr:city": "臺北市"
      }
    },
    {
      "geometry": {
        "type": "Point",
        "coordinates": [
          121.53504196206946,
          25.11454561707026
        ]
      },
      "type": "Feature",
      "id": "relation/4791508",
      "properties": {
        "website": "http://www.utaipei.edu.tw/bin/home.php",
        "changeset": "32199044",
        "amenity": "university",
        "uid": "274857",
        "timestamp": "2015-06-25T07:23:33Z",
        "addr:housenumber": "101",
        "wikipedia": "zh:臺北市立大學天母校區",
        "phone": "+886 2 2871-8288",
        "version": "2",
        "user": "Supaplex",
        "addr:postcode": "11153",
        "operator": "臺北市政府教育局",
        "addr:street": "忠誠路二段",
        "type": "multipolygon",
        "id": "relation/4791508",
        "name": "臺北市立大學天母校區"
      }
    },
    {
      "geometry": {
        "type": "Point",
        "coordinates": [
          121.51378402606962,
          25.03635186497039
        ]
      },
      "type": "Feature",
      "id": "relation/4793842",
      "properties": {
        "changeset": "34823124",
        "amenity": "university",
        "uid": "1215520",
        "type": "multipolygon",
        "operator": "臺北市政府教育局",
        "id": "relation/4793842",
        "addr:housenumber": "1",
        "addr:district": "中正區",
        "wikipedia": "zh:臺北市立大學",
        "name": "臺北市立大學",
        "version": "4",
        "name:zh": "臺北市立大學",
        "website": "http://www.utaipei.edu.tw/",
        "short_name": "北市大",
        "timestamp": "2015-10-23T15:44:40Z",
        "addr:full": "10048臺北市中正區愛國西路1號",
        "phone": "+886-2-2311-3040",
        "user": "bananatw",
        "addr:street": "愛國西路",
        "name:en": "University of Taipei",
        "addr:city": "臺北市",
        "addr:postcode": "10048",
        "addr:country": "TW"
      }
    },
    {
      "geometry": {
        "type": "Point",
        "coordinates": [
          121.44970336200183,
          25.226942549814524
        ]
      },
      "type": "Feature",
      "id": "relation/4814192",
      "properties": {
        "website": "http://www.sju.edu.tw/",
        "changeset": "43425985",
        "amenity": "university",
        "name:en": "St. John's University",
        "uid": "274857",
        "timestamp": "2016-11-05T16:50:37Z",
        "addr:housenumber": "499號",
        "wikipedia": "en:St. John's University (Taiwan)",
        "version": "4",
        "user": "Supaplex",
        "old_name": "新埔工專",
        "addr:street": "淡金路",
        "type": "multipolygon",
        "id": "relation/4814192",
        "name": "聖約翰科技大學"
      }
    },
    {
      "geometry": {
        "type": "Point",
        "coordinates": [
          121.30596905415693,
          24.933755452612232
        ]
      },
      "type": "Feature",
      "id": "relation/4868583",
      "properties": {
        "addr:housenumber": "1000",
        "changeset": "38504950",
        "amenity": "university",
        "name:en": "National Defense University",
        "alt_name": "率真營區",
        "uid": "274857",
        "addr:district": "八德區",
        "timestamp": "2016-04-12T16:46:33Z",
        "addr:street": "興豐路",
        "addr:full": "桃園市八德區興豐路1000號",
        "addr:city": "桃園市",
        "version": "4",
        "user": "Supaplex",
        "old_addr:full": "桃園縣八德市興豐路1000號",
        "landuse": "military",
        "type": "multipolygon",
        "id": "relation/4868583",
        "name": "國防大學校本部率真校區"
      }
    },
    {
      "geometry": {
        "type": "Point",
        "coordinates": [
          121.54518942897046,
          25.02340879951975
        ]
      },
      "type": "Feature",
      "id": "relation/5011203",
      "properties": {
        "changeset": "30899810",
        "amenity": "university",
        "uid": "274857",
        "type": "multipolygon",
        "operator": "教育部",
        "id": "relation/5011203",
        "addr:housenumber": "134",
        "addr:district": "大安區",
        "wikipedia": "zh:國立臺北教育大學",
        "name": "國立臺北教育大學",
        "version": "1",
        "name:zh-py": "Guólì Táiběi Jiàoyù Dàxué",
        "name:zh": "國立臺北教育大學",
        "website": "http://www.ntue.edu.tw/",
        "name:ja": "国立台北教育大学",
        "timestamp": "2015-05-08T10:39:05Z",
        "phone": "+886-2-2732-1104;+886-2-6639-6688",
        "user": "Supaplex",
        "old_name": "國立臺北師範學院 (National Taiwan Teachers' College)",
        "addr:street": "和平東路二段",
        "name:en": "National Taipei University of Education",
        "addr:city": "臺北市",
        "addr:postcode": "10671"
      }
    },
    {
      "geometry": {
        "type": "Point",
        "coordinates": [
          121.5291190978016,
          25.014078697593046
        ]
      },
      "type": "Feature",
      "id": "relation/5281309",
      "properties": {
        "addr:housenumber": "18",
        "changeset": "39313431",
        "amenity": "university",
        "uid": "274857",
        "addr:district": "中正區",
        "timestamp": "2016-05-14T15:02:33Z",
        "addr:full": "10087台北市中正區思源街18號",
        "addr:city": "台北市",
        "operator": "國立臺灣大學",
        "version": "3",
        "user": "Supaplex",
        "addr:postcode": "10087",
        "owner": "國立臺灣大學",
        "addr:street": "思源街",
        "type": "multipolygon",
        "id": "relation/5281309",
        "name": "臺大水源校區"
      }
    },
    {
      "geometry": {
        "type": "Point",
        "coordinates": [
          121.53568150171755,
          25.008165041414138
        ]
      },
      "type": "Feature",
      "id": "relation/5283954",
      "properties": {
        "addr:housenumber": "88",
        "changeset": "42625902",
        "amenity": "university",
        "name:en": "National Taiwan Normal University (Gongguan Campus)",
        "uid": "3134177",
        "short_name": "師大分部",
        "operator:type": "public",
        "timestamp": "2016-10-04T10:35:43Z",
        "addr:full": "11677臺北市文山區汀州路四段88號",
        "addr:postcode": "11677",
        "addr:city": "臺北市",
        "addr:full:en": "88, Ting-chou Rd., Sec. 4, Taipei 11677, Taiwan",
        "version": "3",
        "user": "Asio_Tempest",
        "addr:district": "文山區",
        "operator": "National Taiwan Normal University",
        "addr:street": "汀州路四段",
        "type": "multipolygon",
        "id": "relation/5283954",
        "name": "國立臺灣師範大學公館校區"
      }
    },
    {
      "geometry": {
        "type": "Point",
        "coordinates": [
          121.5418145947238,
          25.01344278470999
        ]
      },
      "type": "Feature",
      "id": "relation/5355856",
      "properties": {
        "changeset": "32541881",
        "amenity": "university",
        "int_name": "National Taiwan University of Science and Technology",
        "uid": "274857",
        "addr:full:en": "No.43, Sec. 4, Keelung Rd., Da’an Dist., Taipei 106, Taiwan (R.O.C.)",
        "postal_code": "10607",
        "alt_name": "國立台灣科技大學",
        "id": "relation/5355856",
        "addr:housenumber": "43",
        "addr:district": "大安區",
        "wikipedia": "zh:國立臺灣科技大學",
        "name": "國立臺灣科技大學",
        "version": "1",
        "name:zh": "國立臺灣科技大學",
        "website": "http://www.ntust.edu.tw",
        "short_name": "臺科大",
        "timestamp": "2015-07-10T12:38:03Z",
        "addr:full": "10607臺北市大安區基隆路四段43號",
        "phone": "+886-2-27333141",
        "user": "Supaplex",
        "short_name:en": "NTUST",
        "addr:street": "基隆路四段",
        "name:en": "National Taiwan University of Science and Technology",
        "addr:city": "臺北市",
        "type": "multipolygon",
        "addr:postcode": "106"
      }
    },
    {
      "geometry": {
        "type": "Point",
        "coordinates": [
          121.610260723821,
          25.046803629820168
        ]
      },
      "type": "Feature",
      "id": "relation/5443019",
      "properties": {
        "website": "http://nbrp.sinica.edu.tw/",
        "changeset": "39313431",
        "fax": "+8862 2783 1419",
        "uid": "274857",
        "timestamp": "2016-05-14T15:02:33Z",
        "amenity": "university",
        "phone": "+886 2 2652 2990",
        "version": "2",
        "user": "Supaplex",
        "type": "multipolygon",
        "id": "relation/5443019",
        "name": "國家生技研究園區"
      }
    },
    {
      "geometry": {
        "type": "Point",
        "coordinates": [
          121.42079443469513,
          25.04190082892439
        ]
      },
      "type": "Feature",
      "id": "relation/5456014",
      "properties": {
        "website": "http://www.mcut.edu.tw",
        "changeset": "42420062",
        "fax": "+886-2-2904-1914",
        "addr:village": "貴子里",
        "uid": "2859698",
        "addr:district": "泰山區",
        "timestamp": "2016-09-25T10:18:12Z",
        "addr:housenumber": "84",
        "wikipedia": "zh:明志科技大學",
        "amenity": "university",
        "addr:city": "新北市",
        "phone": "+886-2-2908-9899",
        "version": "5",
        "user": "assanges",
        "addr:postcode": "24301",
        "addr:street": "工專路",
        "type": "multipolygon",
        "id": "relation/5456014",
        "name": "明志科技大學"
      }
    },
    {
      "geometry": {
        "type": "Point",
        "coordinates": [
          121.43251407529642,
          25.03629834827223
        ]
      },
      "type": "Feature",
      "id": "relation/5456018",
      "properties": {
        "changeset": "36174918",
        "amenity": "university",
        "uid": "1215520",
        "official_name": "輔仁大學學校財團法人輔仁大學",
        "alt_name": "天主教輔仁大學",
        "type": "multipolygon",
        "id": "relation/5456018",
        "addr:housenumber": "510",
        "addr:district": "新莊區",
        "wikipedia": "zh:輔仁大學",
        "name": "輔仁大學",
        "version": "2",
        "name:zh": "輔仁大學",
        "email": "pubwww@mail.fju.edu.tw",
        "website": "http://www.fju.edu.tw/",
        "short_name": "輔大",
        "timestamp": "2015-12-26T11:46:58Z",
        "addr:full": "24205新北市新莊區中正路510號",
        "phone": "+886 2 2905 2000",
        "user": "bananatw",
        "short_name:en": "FJU",
        "addr:street": "中正路",
        "name:en": "Fu Jen Catholic University",
        "addr:city": "新北市",
        "addr:postcode": "24205",
        "addr:country": "TW"
      }
    },
    {
      "geometry": {
        "type": "Point",
        "coordinates": [
          121.77768692251884,
          25.15014434422891
        ]
      },
      "type": "Feature",
      "id": "relation/5473923",
      "properties": {
        "changeset": "33688429",
        "amenity": "university",
        "uid": "274857",
        "timestamp": "2015-08-30T18:37:11Z",
        "version": "1",
        "user": "Supaplex",
        "type": "multipolygon",
        "id": "relation/5473923",
        "name": "國立臺灣海洋大學"
      }
    },
    {
      "geometry": {
        "type": "Point",
        "coordinates": [
          121.56434550566489,
          23.997209865486585
        ]
      },
      "type": "Feature",
      "id": "relation/5525827",
      "properties": {
        "changeset": "36341314",
        "amenity": "university",
        "uid": "1215520",
        "id": "relation/5525827",
        "addr:housenumber": "880",
        "ref": "1077",
        "wikipedia": "zh:慈濟科技大學",
        "name": "慈濟科技大學",
        "version": "2",
        "name:zh": "慈濟科技大學",
        "type": "multipolygon",
        "website": "http://www.tcust.edu.tw/bin/home.php",
        "fax": "+886 3 857 7261",
        "timestamp": "2016-01-03T16:08:49Z",
        "addr:full": "97005花蓮縣花蓮市建國路二段880號",
        "phone": "+886 3 857 2158",
        "user": "bananatw",
        "old_name": "慈濟護理專科學校;慈濟技術學院",
        "addr:street": "建國路二段",
        "name:en": "Tzu Chi University of Science and Technology",
        "addr:city": "花蓮市",
        "addr:postcode": "97005",
        "addr:country": "TW"
      }
    },
    {
      "geometry": {
        "type": "Point",
        "coordinates": [
          121.52767550710816,
          25.02618138838093
        ]
      },
      "type": "Feature",
      "id": "relation/5671455",
      "properties": {
        "website": "http://www2.ntnu.edu.tw/",
        "changeset": "38032284",
        "amenity": "university",
        "name:en": "National Taiwan Normal University",
        "uid": "274857",
        "timestamp": "2016-03-24T02:12:01Z",
        "addr:housenumber": "162",
        "wikipedia": "zh:國立臺灣師範大學",
        "addr:city": "臺北市",
        "phone": "+886 2 7734-1111",
        "version": "4",
        "user": "Supaplex",
        "addr:postcode": "106",
        "operator": "教育部",
        "name:zh": "國立臺灣師範大學",
        "addr:street": "和平東路一段",
        "type": "multipolygon",
        "id": "relation/5671455",
        "name": "國立臺灣師範大學"
      }
    },
    {
      "geometry": {
        "type": "Point",
        "coordinates": [
          120.55040020703517,
          24.066609626072502
        ]
      },
      "type": "Feature",
      "id": "relation/5703771",
      "properties": {
        "changeset": "35633612",
        "amenity": "university",
        "name:en": "Chien kuo Technology University",
        "uid": "274857",
        "timestamp": "2015-11-28T18:33:33Z",
        "version": "1",
        "user": "Supaplex",
        "type": "multipolygon",
        "id": "relation/5703771",
        "name": "建國科技大學"
      }
    },
    {
      "geometry": {
        "type": "Point",
        "coordinates": [
          120.35003118620901,
          22.649310437580763
        ]
      },
      "type": "Feature",
      "id": "relation/5911628",
      "properties": {
        "website": "http://www.csu.edu.tw/",
        "changeset": "36834390",
        "amenity": "university",
        "uid": "274857",
        "addr:district": "鳥松區",
        "timestamp": "2016-01-27T11:00:23Z",
        "addr:full": "83347高雄市鳥松區澄清路840號",
        "wikipedia": "zh:正修科技大學",
        "official_name": "正修科技大學",
        "addr:city": "高雄市",
        "version": "1",
        "user": "Supaplex",
        "addr:postcode": "83347",
        "addr:housenumber": "840",
        "addr:street": "澄清路",
        "type": "multipolygon",
        "id": "relation/5911628",
        "name": "正修科大"
      }
    },
    {
      "geometry": {
        "type": "Point",
        "coordinates": [
          120.21932019613129,
          22.998792329636082
        ]
      },
      "type": "Feature",
      "id": "relation/6038644",
      "properties": {
        "changeset": "40000389",
        "amenity": "university",
        "name:id": "Universitas Nasional Cheng Kung",
        "alt_name": "成功大學",
        "name:zh-min-nan": "Kok-li̍p Sêng-kong Tāi-ha̍k",
        "name:vi": "Đại học Quốc gia Thành Công",
        "name:mn": "Жөнгун улсын их сургууль",
        "id": "relation/6038644",
        "uid": "251543",
        "addr:housenumber": "1",
        "name": "國立成功大學",
        "name:de": "Cheng-Kung-Nationaluniversität",
        "name:fr": "Université nationale Cheng Kung",
        "version": "5",
        "name:zh": "國立成功大學",
        "name:ja": "国立成功大学",
        "short_name": "成大",
        "timestamp": "2016-06-13T19:29:04Z",
        "user": "ChrissW-R1",
        "addr:street": "大學路",
        "name:en": "National Cheng Kung University",
        "addr:city": "台南市",
        "type": "multipolygon",
        "name:ja_kana": "こくりつせいこうだいがく",
        "addr:postcode": "70101",
        "addr:country": "TW"
      }
    },
    {
      "geometry": {
        "type": "Point",
        "coordinates": [
          121.38976981891476,
          25.033899774588797
        ]
      },
      "type": "Feature",
      "id": "relation/6079670",
      "properties": {
        "addr:housenumber": "259",
        "changeset": "39110125",
        "amenity": "university",
        "uid": "2859698",
        "timestamp": "2016-05-05T01:09:20Z",
        "addr:city": "桃園市龜山區",
        "version": "2",
        "user": "assanges",
        "addr:postcode": "33301",
        "addr:street": "文化一路",
        "type": "multipolygon",
        "id": "relation/6079670",
        "name": "長庚大學"
      }
    },
    {
      "geometry": {
        "type": "Point",
        "coordinates": [
          120.22354125204964,
          22.996264974345195
        ]
      },
      "type": "Feature",
      "id": "relation/6185700",
      "properties": {
        "changeset": "39039323",
        "amenity": "university",
        "uid": "1876658",
        "timestamp": "2016-05-02T14:03:42Z",
        "version": "1",
        "user": "MuLinForest",
        "operator": "國立成功大學",
        "type": "multipolygon",
        "id": "relation/6185700",
        "name": "系統及船舶機電工程學系"
      }
    },
    {
      "geometry": {
        "type": "Point",
        "coordinates": [
          120.22248256612981,
          22.996858014077766
        ]
      },
      "type": "Feature",
      "id": "relation/6185709",
      "properties": {
        "changeset": "39039466",
        "amenity": "university",
        "uid": "1876658",
        "short_name": "電機系",
        "timestamp": "2016-05-02T14:09:15Z",
        "version": "1",
        "user": "MuLinForest",
        "operator": "國立成功大學",
        "type": "multipolygon",
        "id": "relation/6185709",
        "name": "電機工程學系"
      }
    },
    {
      "geometry": {
        "type": "Point",
        "coordinates": [
          120.22358037201218,
          22.997132549213543
        ]
      },
      "type": "Feature",
      "id": "relation/6185710",
      "properties": {
        "changeset": "39039466",
        "amenity": "university",
        "uid": "1876658",
        "timestamp": "2016-05-02T14:09:15Z",
        "version": "1",
        "user": "MuLinForest",
        "operator": "國立成功大學",
        "type": "multipolygon",
        "id": "relation/6185710",
        "name": "機械工程學系"
      }
    },
    {
      "geometry": {
        "type": "Point",
        "coordinates": [
          120.67579024151416,
          24.12066273071595
        ]
      },
      "type": "Feature",
      "id": "relation/6277679",
      "properties": {
        "website": "http://www.nchu.edu.tw/",
        "changeset": "39715428",
        "amenity": "university",
        "name:en": "National Chung Hsing University",
        "uid": "274857",
        "timestamp": "2016-06-01T17:25:22Z",
        "wikipedia": "zh:國立中興大學法商學院",
        "phone": "+886 4 2287-3181",
        "version": "1",
        "user": "Supaplex",
        "addr:housenumber": "250",
        "name:zh": "國立中興大學",
        "type": "multipolygon",
        "id": "relation/6277679",
        "name": "國立中興大學"
      }
    },
    {
      "geometry": {
        "type": "Point",
        "coordinates": [
          120.22462952506596,
          23.02378639936381
        ]
      },
      "type": "Feature",
      "id": "relation/6322938",
      "properties": {
        "website": "http://www.stust.edu.tw/",
        "changeset": "40098204",
        "amenity": "university",
        "name:en": "Southern Taiwan University",
        "uid": "189328",
        "addr:district": "永康區",
        "timestamp": "2016-06-17T16:05:45Z",
        "addr:city": "臺南市",
        "phone": "+886 6 253 3131",
        "version": "1",
        "user": "Kagami",
        "addr:housenumber": "1",
        "addr:street": "南台街",
        "type": "multipolygon",
        "id": "relation/6322938",
        "name": "南臺科技大學"
      }
    },
    {
      "geometry": {
        "type": "Point",
        "coordinates": [
          120.47443533091895,
          23.563405459183393
        ]
      },
      "type": "Feature",
      "id": "relation/6331684",
      "properties": {
        "changeset": "40131765",
        "amenity": "university",
        "uid": "274857",
        "timestamp": "2016-06-19T09:33:06Z",
        "version": "1",
        "user": "Supaplex",
        "type": "multipolygon",
        "id": "relation/6331684",
        "name": "國立中正大學"
      }
    },
    {
      "geometry": {
        "type": "Point",
        "coordinates": [
          120.2700175074013,
          22.784157596497568
        ]
      },
      "type": "Feature",
      "id": "relation/6334429",
      "properties": {
        "changeset": "40154215",
        "amenity": "university",
        "uid": "274857",
        "timestamp": "2016-06-20T10:44:33Z",
        "version": "1",
        "user": "Supaplex",
        "landuse": "military",
        "type": "multipolygon",
        "id": "relation/6334429",
        "name": "空軍官校"
      }
    },
    {
      "geometry": {
        "type": "Point",
        "coordinates": [
          120.24487034227339,
          22.960906767696805
        ]
      },
      "type": "Feature",
      "id": "relation/6554294",
      "properties": {
        "changeset": "41901437",
        "amenity": "university",
        "uid": "189328",
        "timestamp": "2016-09-04T07:01:13Z",
        "version": "1",
        "user": "Kagami",
        "type": "multipolygon",
        "id": "relation/6554294",
        "name": "中華醫事科技大學"
      }
    },
    {
      "geometry": {
        "type": "Point",
        "coordinates": [
          121.54496812609199,
          25.094116050613255
        ]
      },
      "type": "Feature",
      "id": "relation/6717080",
      "properties": {
        "building": "yes",
        "changeset": "43721851",
        "uid": "4855694",
        "timestamp": "2016-11-17T08:55:11Z",
        "version": "1",
        "user": "andrewyu",
        "type": "multipolygon",
        "id": "relation/6717080",
        "name": "超庸館"
      }
    },
    {
      "geometry": {
        "type": "Point",
        "coordinates": [
          121.56140954794336,
          25.025146306016456
        ]
      },
      "type": "Feature",
      "id": "relation/6724277",
      "properties": {
        "changeset": "43823206",
        "amenity": "university",
        "uid": "274857",
        "id": "relation/6724277",
        "addr:housenumber": "250",
        "addr:district": "信義區",
        "wikipedia": "zh:臺北醫學大學",
        "name": "臺北醫學大學",
        "version": "1",
        "name:zh": "臺北醫學大學",
        "type": "multipolygon",
        "website": "http://www.tmu.edu.tw/",
        "timestamp": "2016-11-20T14:35:25Z",
        "addr:full": "11031臺北市信義區吳興街250號",
        "phone": "+886 2 2736 1661",
        "user": "Supaplex",
        "old_name": "臺北醫學院",
        "ref": "310902400Q",
        "addr:street": "吳興街",
        "name:en": "Taipei Medical University",
        "addr:city": "臺北市",
        "addr:postcode": "11031",
        "addr:country": "TW"
      }
    },
    {
      "geometry": {
        "type": "Point",
        "coordinates": [
          120.28284021659678,
          22.73422775984922
        ]
      },
      "type": "Feature",
      "id": "way/24275096",
      "properties": {
        "changeset": "15391255",
        "amenity": "university",
        "name:en": "University of Kaohsiung",
        "uid": "189328",
        "timestamp": "2013-03-17T04:09:11Z",
        "is_in:zh": "台灣高雄市楠梓區",
        "version": "9",
        "user": "Kagami",
        "is_in": "Nan-zih District, Kaohsiung City, Taiwan",
        "id": "way/24275096",
        "name": "國立高雄大學"
      }
    },
    {
      "geometry": {
        "type": "Point",
        "coordinates": [
          120.3102715065321,
          22.647526756050084
        ]
      },
      "type": "Feature",
      "id": "way/33406779",
      "properties": {
        "changeset": "15108406",
        "amenity": "university",
        "name:en": "Kaohsiung Medical University",
        "uid": "290680",
        "timestamp": "2013-02-21T11:15:05Z",
        "wheelchair": "limited",
        "is_in:zh": "台灣高雄市三民區",
        "version": "6",
        "user": "wheelmap_visitor",
        "is_in": "Sanmin District, Kaohsiung City, Taiwan",
        "name:zh": "高雄醫學大學",
        "id": "way/33406779",
        "name": "高雄醫學大學"
      }
    },
    {
      "geometry": {
        "type": "Point",
        "coordinates": [
          121.54133228730738,
          23.89729587544606
        ]
      },
      "type": "Feature",
      "id": "way/47213440",
      "properties": {
        "changeset": "42698447",
        "amenity": "university",
        "name:en": "National Dong Hwa University",
        "uid": "3877019",
        "timestamp": "2016-10-06T23:44:45Z",
        "is_in:zh": "台灣花蓮縣壽豐鄉",
        "version": "14",
        "user": "piligab",
        "is_in": "Shoufong Township, Hualien County, Taiwan",
        "name:zh": "東華大學",
        "id": "way/47213440",
        "name": "東華大學"
      }
    },
    {
      "geometry": {
        "type": "Point",
        "coordinates": [
          121.35210526579858,
          25.046969536338953
        ]
      },
      "type": "Feature",
      "id": "way/47442717",
      "properties": {
        "addr:housenumber": "56",
        "changeset": "43331093",
        "amenity": "university",
        "name:en": "Central Police University",
        "uid": "2859698",
        "timestamp": "2016-11-01T17:17:13Z",
        "addr:city": "桃園市龜山區",
        "version": "4",
        "user": "assanges",
        "addr:postcode": "333",
        "addr:street": "樹人路",
        "name:zh": "中央警察大學",
        "id": "way/47442717",
        "name": "中央警察大學"
      }
    },
    {
      "geometry": {
        "type": "Point",
        "coordinates": [
          120.37234838451677,
          22.563443968000662
        ]
      },
      "type": "Feature",
      "id": "way/87793507",
      "properties": {
        "changeset": "42725112",
        "amenity": "university",
        "name:en": "National Kaohsiung University of Hospitality and Tourism",
        "uid": "4624153",
        "timestamp": "2016-10-08T01:55:56Z",
        "version": "5",
        "user": "860917harry",
        "id": "way/87793507",
        "name": "國立高雄餐旅大學"
      }
    },
    {
      "geometry": {
        "type": "Point",
        "coordinates": [
          121.60761356432265,
          24.038958641067847
        ]
      },
      "type": "Feature",
      "id": "way/92387264",
      "properties": {
        "website": "http://www.dahan.edu.tw/",
        "changeset": "34255908",
        "amenity": "university",
        "name:en": "Dahan Institute of Technology",
        "uid": "274857",
        "addr:district": "新城鄉",
        "timestamp": "2015-09-26T04:08:24Z",
        "addr:full": "花蓮縣新城鄉大漢村樹人街1號",
        "wikipedia": "zh:大漢技術學院",
        "addr:city": "花蓮縣",
        "phone": "+886 3 8210-888",
        "version": "4",
        "user": "Supaplex",
        "addr:village": "大漢村",
        "addr:postcode": "97145",
        "id": "way/92387264",
        "addr:housenumber": "1",
        "addr:street": "樹人街",
        "name:zh": "大漢技術學院",
        "email": "web_master@ms01.dahan.edu.tw",
        "name": "大漢技術學院"
      }
    },
    {
      "geometry": {
        "type": "Point",
        "coordinates": [
          120.27522539087495,
          23.32416339392584
        ]
      },
      "type": "Feature",
      "id": "way/103262916",
      "properties": {
        "changeset": "31056330",
        "amenity": "university",
        "uid": "189328",
        "timestamp": "2015-05-12T15:10:48Z",
        "version": "2",
        "user": "Kagami",
        "id": "way/103262916",
        "name": "南榮科技大學"
      }
    },
    {
      "geometry": {
        "type": "Point",
        "coordinates": [
          120.60854470211918,
          24.137500738973003
        ]
      },
      "type": "Feature",
      "id": "way/103761548",
      "properties": {
        "changeset": "41337460",
        "amenity": "university",
        "uid": "3219585",
        "timestamp": "2016-08-09T04:59:16Z",
        "version": "6",
        "user": "Kevin JR Chen",
        "id": "way/103761548",
        "name": "嶺東科技大學春安校區"
      }
    },
    {
      "geometry": {
        "type": "Point",
        "coordinates": [
          120.32979535612493,
          22.75384764389921
        ]
      },
      "type": "Feature",
      "id": "way/104822965",
      "properties": {
        "changeset": "28977226",
        "amenity": "university",
        "uid": "189328",
        "timestamp": "2015-02-20T13:13:21Z",
        "version": "5",
        "user": "Kagami",
        "id": "way/104822965",
        "name": "高雄第一科技大學西校區"
      }
    },
    {
      "geometry": {
        "type": "Point",
        "coordinates": [
          120.36211214081221,
          22.763444579548068
        ]
      },
      "type": "Feature",
      "id": "way/104822996",
      "properties": {
        "changeset": "28977465",
        "amenity": "university",
        "uid": "189328",
        "timestamp": "2015-02-20T13:26:27Z",
        "version": "2",
        "user": "Kagami",
        "id": "way/104822996",
        "name": "義守大學分部"
      }
    },
    {
      "geometry": {
        "type": "Point",
        "coordinates": [
          120.33685061009915,
          22.75677094618188
        ]
      },
      "type": "Feature",
      "id": "way/104823088",
      "properties": {
        "changeset": "28977226",
        "amenity": "university",
        "uid": "189328",
        "timestamp": "2015-02-20T13:13:21Z",
        "version": "4",
        "user": "Kagami",
        "id": "way/104823088",
        "name": "高雄第一科技大學東校區"
      }
    },
    {
      "geometry": {
        "type": "Point",
        "coordinates": [
          121.26656629489716,
          24.968982573002485
        ]
      },
      "type": "Feature",
      "id": "way/109837883",
      "properties": {
        "website": "http://www.yzu.edu.tw/",
        "changeset": "40670865",
        "amenity": "university",
        "name:en": "Yuan-Ze University",
        "uid": "4246630",
        "addr:district": "中壢區",
        "timestamp": "2016-07-12T02:42:42Z",
        "addr:housenumber": "135",
        "wikipedia": "en:Yuan Ze University",
        "addr:city": "桃園市",
        "phone": "+88634638800",
        "version": "8",
        "user": "yeahpopo",
        "addr:postcode": "32003",
        "addr:street": "遠東路",
        "id": "way/109837883",
        "name": "元智大學"
      }
    },
    {
      "geometry": {
        "type": "Point",
        "coordinates": [
          121.23013098829591,
          24.947560818578005
        ]
      },
      "type": "Feature",
      "id": "way/110955665",
      "properties": {
        "changeset": "20859129",
        "amenity": "university",
        "uid": "1958531",
        "timestamp": "2014-03-02T06:40:41Z",
        "version": "2",
        "user": "mic072578",
        "id": "way/110955665",
        "name": "健行科技大學"
      }
    },
    {
      "geometry": {
        "type": "Point",
        "coordinates": [
          121.23062196625885,
          24.992081964793172
        ]
      },
      "type": "Feature",
      "id": "way/110971780",
      "properties": {
        "changeset": "8005612",
        "amenity": "university",
        "uid": "387754",
        "timestamp": "2011-04-29T18:34:51Z",
        "version": "1",
        "user": "HsuanRT",
        "id": "way/110971780",
        "name": "萬能科技大學"
      }
    },
    {
      "geometry": {
        "type": "Point",
        "coordinates": [
          120.3214403628581,
          22.625618573015203
        ]
      },
      "type": "Feature",
      "id": "way/113740778",
      "properties": {
        "changeset": "39883877",
        "amenity": "university",
        "alt_name:en": "NKNU",
        "uid": "3319547",
        "wikipedia:en": "National Kaohsiung Normal University",
        "wikipedia:ja": "国立高雄師範大学",
        "alt_name": "高師大",
        "id": "way/113740778",
        "addr:housenumber": "116",
        "wikipedia": "zh:國立高雄師範大學",
        "name": "國立高雄師範大學",
        "version": "14",
        "website": "http://w3.nknu.edu.tw/",
        "name:ja": "国立高雄師範大学",
        "barrier": "wall",
        "timestamp": "2016-06-08T12:41:08Z",
        "phone": "+886 7 7172930",
        "user": "s8321414",
        "addr:street": "和平一路",
        "name:en": "National Kaohsiung Normal University",
        "addr:city": "高雄市",
        "addr:postcode": "80201",
        "addr:country": "TW"
      }
    },
    {
      "geometry": {
        "type": "Point",
        "coordinates": [
          120.32847136760033,
          22.649276885188257
        ]
      },
      "type": "Feature",
      "id": "way/113741257",
      "properties": {
        "changeset": "30013178",
        "amenity": "university",
        "name:en": "Kaohsiung University of Applied Science",
        "uid": "189328",
        "timestamp": "2015-04-06T11:33:16Z",
        "wheelchair": "yes",
        "version": "10",
        "user": "Kagami",
        "name:zh": "國立高雄應用科技大學",
        "id": "way/113741257",
        "name": "國立高雄應用科技大學建工校區"
      }
    },
    {
      "geometry": {
        "type": "Point",
        "coordinates": [
          120.31895755732836,
          22.66995220804642
        ]
      },
      "type": "Feature",
      "id": "way/114055103",
      "properties": {
        "changeset": "39808420",
        "amenity": "university",
        "uid": "189328",
        "timestamp": "2016-06-05T03:41:46Z",
        "version": "10",
        "user": "Kagami",
        "id": "way/114055103",
        "name": "文藻外語大學"
      }
    },
    {
      "geometry": {
        "type": "Point",
        "coordinates": [
          121.24304317699193,
          24.958534684430642
        ]
      },
      "type": "Feature",
      "id": "way/115106087",
      "properties": {
        "changeset": "42163863",
        "amenity": "university",
        "name:en": "Chung Yuan Christian University",
        "int_name": "Chung Yuan Christian University",
        "uid": "274857",
        "timestamp": "2016-09-15T04:37:02Z",
        "wikipedia": "zh:中原大學",
        "version": "10",
        "wikidata": "Q5116360",
        "user": "Supaplex",
        "id": "way/115106087",
        "name": "中原大學"
      }
    },
    {
      "geometry": {
        "type": "Point",
        "coordinates": [
          120.58062855210518,
          24.22724662148491
        ]
      },
      "type": "Feature",
      "id": "way/117553450",
      "properties": {
        "addr:housenumber": "200",
        "changeset": "34152756",
        "amenity": "university",
        "name:en": "Providence University",
        "uid": "1215520",
        "addr:district": "沙鹿區",
        "timestamp": "2015-09-21T02:45:52Z",
        "addr:full": "43301臺中市沙鹿區臺灣大道七段200號",
        "wikipedia": "zh:靜宜大學",
        "addr:city": "臺中市",
        "phone": "+886-4-2632-8001",
        "version": "6",
        "user": "bananatw",
        "addr:postcode": "43301",
        "addr:street": "臺灣大道七段",
        "name:zh": "靜宜大學",
        "id": "way/117553450",
        "name": "靜宜大學"
      }
    },
    {
      "geometry": {
        "type": "Point",
        "coordinates": [
          120.58256051734838,
          24.217292790885388
        ]
      },
      "type": "Feature",
      "id": "way/117609960",
      "properties": {
        "changeset": "37601075",
        "amenity": "university",
        "uid": "3306156",
        "timestamp": "2016-03-04T05:33:21Z",
        "version": "3",
        "user": "PigMu",
        "id": "way/117609960",
        "name": "弘光科技大學"
      }
    },
    {
      "geometry": {
        "type": "Point",
        "coordinates": [
          120.64835651180644,
          24.18000611037667
        ]
      },
      "type": "Feature",
      "id": "way/117611276",
      "properties": {
        "changeset": "38135879",
        "amenity": "university",
        "uid": "3736878",
        "id": "way/117611276",
        "addr:housenumber": "100",
        "addr:district": "西屯區",
        "wikipedia": "zh:逢甲大學",
        "name": "逢甲大學",
        "version": "19",
        "name:zh": "逢甲大學",
        "website": "http://www.fcu.edu.tw/",
        "timestamp": "2016-03-29T05:52:10Z",
        "addr:full": "40724臺中市西屯區文華路100號",
        "phone": "+886 4 2451 7250#2258",
        "user": "黃莉涵",
        "addr:street": "文華路",
        "name:en": "Feng Chia University",
        "addr:city": "臺中市",
        "addr:postcode": "40724",
        "wheelchair": "limited",
        "toilets:wheelchair": "yes",
        "addr:country": "TW"
      }
    },
    {
      "geometry": {
        "type": "Point",
        "coordinates": [
          120.16291892407743,
          23.064872479914023
        ]
      },
      "type": "Feature",
      "id": "way/119430578",
      "properties": {
        "changeset": "39167079",
        "amenity": "university",
        "uid": "432265",
        "id": "way/119430578",
        "addr:housenumber": "600",
        "addr:district": "安南區",
        "wikipedia": "zh:中信金融管理學院",
        "name": "中信金融管理學院",
        "version": "5",
        "name:zh": "中信金融管理學院",
        "website": "http://www.ctbc.edu.tw/",
        "timestamp": "2016-05-07T16:24:46Z",
        "addr:full": "70963臺南市安南區台江大道三段600號",
        "phone": "+886 6 287 3335",
        "user": "kcwu",
        "old_name": "興國管理學院",
        "ref": "1125",
        "addr:street": "台江大道三段",
        "name:en": "CTBC Financial Management College",
        "addr:city": "臺南市",
        "addr:postcode": "70963",
        "addr:country": "TW"
      }
    },
    {
      "geometry": {
        "type": "Point",
        "coordinates": [
          120.27323779895619,
          22.904022934371977
        ]
      },
      "type": "Feature",
      "id": "way/119438107",
      "properties": {
        "changeset": "43048721",
        "amenity": "university",
        "uid": "24561",
        "timestamp": "2016-10-21T02:03:19Z",
        "version": "5",
        "user": "seke",
        "id": "way/119438107",
        "name": "長榮大學"
      }
    },
    {
      "geometry": {
        "type": "Point",
        "coordinates": [
          120.67177769271797,
          24.143621805259617
        ]
      },
      "type": "Feature",
      "id": "way/120262762",
      "properties": {
        "website": "http://www.ntcu.edu.tw/",
        "changeset": "34561566",
        "amenity": "university",
        "name:en": "National Taichung University of Education",
        "uid": "1215520",
        "addr:district": "西區",
        "timestamp": "2015-10-11T03:15:53Z",
        "id": "way/120262762",
        "addr:full": "40306臺中市西區民生路140號",
        "wikipedia": "zh:國立臺中教育大學",
        "addr:city": "臺中市",
        "phone": "+886-4-2218-3199",
        "version": "8",
        "user": "bananatw",
        "addr:postcode": "40306",
        "operator": "教育部",
        "addr:housenumber": "140",
        "addr:street": "民生路",
        "name:zh": "國立臺中教育大學",
        "addr:country": "TW",
        "name": "國立臺中教育大學"
      }
    },
    {
      "geometry": {
        "type": "Point",
        "coordinates": [
          120.314963543751,
          22.72632324028295
        ]
      },
      "type": "Feature",
      "id": "way/126382259",
      "properties": {
        "website": "http://www.nkmu.edu.tw/",
        "changeset": "20116057",
        "amenity": "university",
        "name:en": "National Kaohsiung Marine University",
        "uid": "1876091",
        "short_name": "海科大",
        "timestamp": "2014-01-21T03:48:45Z",
        "addr:housenumber": "142號",
        "wikipedia": "zh:國立高雄海洋科技大學",
        "addr:city": "高雄市",
        "phone": "+886 7 361 7141",
        "version": "4",
        "user": "周小胖",
        "addr:postcode": "81157",
        "addr:street": "海專路",
        "id": "way/126382259",
        "name": "高雄海洋科技大學"
      }
    },
    {
      "geometry": {
        "type": "Point",
        "coordinates": [
          120.55871985952835,
          24.08098062905458
        ]
      },
      "type": "Feature",
      "id": "way/126468321",
      "properties": {
        "addr:housenumber": "1號",
        "changeset": "38042984",
        "amenity": "university",
        "name:en": "National Changhua University of Education",
        "int_name": "National Changhua University of Education",
        "uid": "1439333",
        "timestamp": "2016-03-24T14:53:48Z",
        "version": "9",
        "user": "Littlebtc",
        "addr:postcode": "500",
        "addr:street": "進德路",
        "id": "way/126468321",
        "name": "國立彰化師範大學(進德校區)"
      }
    },
    {
      "geometry": {
        "type": "Point",
        "coordinates": [
          121.61863455219459,
          24.008945276451573
        ]
      },
      "type": "Feature",
      "id": "way/132937562",
      "properties": {
        "changeset": "26564133",
        "amenity": "university",
        "uid": "1795851",
        "timestamp": "2014-11-05T05:58:45Z",
        "version": "6",
        "user": "yankee71",
        "id": "way/132937562",
        "name": "國立東華大學美崙校區(原花蓮師院)"
      }
    },
    {
      "geometry": {
        "type": "Point",
        "coordinates": [
          121.00055877288003,
          24.787593187433885
        ]
      },
      "type": "Feature",
      "id": "way/134752746",
      "properties": {
        "building": "yes",
        "changeset": "27347495",
        "amenity": "university",
        "uid": "2485176",
        "building:levels": "3",
        "timestamp": "2014-12-09T02:26:12Z",
        "wheelchair": "yes",
        "addr:housename": "管理一館",
        "note": "● 男女廁所供應",
        "version": "10",
        "user": "DORACHU",
        "addr:housenumber": "1001",
        "addr:street": "大學路",
        "id": "way/134752746",
        "name": "管理一館"
      }
    },
    {
      "geometry": {
        "type": "Point",
        "coordinates": [
          120.2686125712407,
          23.19275378283319
        ]
      },
      "type": "Feature",
      "id": "way/136471139",
      "properties": {
        "changeset": "39403194",
        "amenity": "university",
        "uid": "189328",
        "timestamp": "2016-05-18T15:23:49Z",
        "version": "6",
        "user": "Kagami",
        "old_name": "致遠管理學院",
        "id": "way/136471139",
        "name": "台灣首府大學"
      }
    },
    {
      "geometry": {
        "type": "Point",
        "coordinates": [
          120.22524447478611,
          23.21738481761465
        ]
      },
      "type": "Feature",
      "id": "way/137304872",
      "properties": {
        "changeset": "25719113",
        "amenity": "university",
        "uid": "189328",
        "timestamp": "2014-09-28T07:17:43Z",
        "version": "2",
        "user": "Kagami",
        "id": "way/137304872",
        "name": "真理大學麻豆分校"
      }
    },
    {
      "geometry": {
        "type": "Point",
        "coordinates": [
          121.52845978187514,
          25.031022397209608
        ]
      },
      "type": "Feature",
      "id": "way/138996582",
      "properties": {
        "addr:housenumber": "5",
        "changeset": "32406193",
        "amenity": "university",
        "uid": "274857",
        "addr:district": "大安區",
        "timestamp": "2015-07-04T10:24:56Z",
        "official_name": "淡江大學臺北校區",
        "addr:city": "臺北市",
        "version": "3",
        "user": "Supaplex",
        "addr:street": "金華街199巷",
        "id": "way/138996582",
        "name": "淡大城區部"
      }
    },
    {
      "geometry": {
        "type": "Point",
        "coordinates": [
          121.52769966394384,
          25.030402994997168
        ]
      },
      "type": "Feature",
      "id": "way/138996584",
      "properties": {
        "changeset": "33214002",
        "uid": "274857",
        "barrier": "wall",
        "timestamp": "2015-08-09T08:03:26Z",
        "version": "4",
        "user": "Supaplex",
        "id": "way/138996584"
      }
    },
    {
      "geometry": {
        "type": "Point",
        "coordinates": [
          120.50199518949765,
          22.66892205391084
        ]
      },
      "type": "Feature",
      "id": "way/141931649",
      "properties": {
        "changeset": "24514915",
        "amenity": "university",
        "uid": "189328",
        "timestamp": "2014-08-03T12:34:34Z",
        "version": "4",
        "user": "Kagami",
        "id": "way/141931649",
        "name": "國立屏東大學林森校區"
      }
    },
    {
      "geometry": {
        "type": "Point",
        "coordinates": [
          121.36798878976988,
          24.942771157546346
        ]
      },
      "type": "Feature",
      "id": "way/142165184",
      "properties": {
        "website": "http://www.ntpu.edu.tw/",
        "changeset": "27958504",
        "amenity": "university",
        "uid": "2556054",
        "timestamp": "2015-01-06T15:29:51Z",
        "wheelchair": "limited",
        "version": "11",
        "user": "sparkfish",
        "id": "way/142165184",
        "name": "國立台北大學"
      }
    },
    {
      "geometry": {
        "type": "Point",
        "coordinates": [
          120.50509339531622,
          22.66636885088632
        ]
      },
      "type": "Feature",
      "id": "way/142240351",
      "properties": {
        "changeset": "24514915",
        "amenity": "university",
        "uid": "189328",
        "timestamp": "2014-08-03T12:34:34Z",
        "version": "2",
        "user": "Kagami",
        "id": "way/142240351",
        "name": "國立屏東大學民生校區"
      }
    },
    {
      "geometry": {
        "type": "Point",
        "coordinates": [
          121.61403997652972,
          25.041666897524376
        ]
      },
      "type": "Feature",
      "id": "way/155772172",
      "properties": {
        "changeset": "39305852",
        "amenity": "university",
        "uid": "274857",
        "addr:full:en": "128 Academia Road, Section 2, Nankang, Taipei 11529, Taiwan",
        "is_in:zh": "台北市南港區",
        "id": "way/155772172",
        "addr:housenumber": "128",
        "addr:district": "南港區",
        "wikipedia": "zh:中央研究院",
        "name": "中央研究院",
        "version": "28",
        "website": "https://www.sinica.edu.tw/",
        "timestamp": "2016-05-14T07:29:33Z",
        "addr:full": "11529台北市南港區研究院路二段128號",
        "phone": "+886 2 2782 2120~9",
        "user": "Supaplex",
        "smoking": "no",
        "addr:street": "研究院路二段",
        "name:en": "Academia Sinica",
        "addr:city": "台北市",
        "addr:postcode": "11529",
        "wheelchair": "limited"
      }
    },
    {
      "geometry": {
        "type": "Point",
        "coordinates": [
          121.11431333317486,
          24.713560250843262
        ]
      },
      "type": "Feature",
      "id": "way/157702631",
      "properties": {
        "addr:housenumber": "200",
        "changeset": "42074066",
        "amenity": "university",
        "name:en": "China University of Science and Technology",
        "uid": "274857",
        "addr:district": "橫山鄉",
        "timestamp": "2016-09-11T09:22:58Z",
        "addr:full": "新竹縣橫山鄉中華街200號",
        "wikipedia": "zh:中華科技大學",
        "addr:city": "新竹縣",
        "version": "3",
        "user": "Supaplex",
        "addr:street": "中華街",
        "name:zh": "中華科技大學新竹校區",
        "id": "way/157702631",
        "name": "中華科技大學新竹校區"
      }
    },
    {
      "geometry": {
        "type": "Point",
        "coordinates": [
          120.08401320556335,
          23.08492763928693
        ]
      },
      "type": "Feature",
      "id": "way/157838220",
      "properties": {
        "changeset": "25740657",
        "amenity": "university",
        "uid": "189328",
        "timestamp": "2014-09-29T07:49:28Z",
        "version": "2",
        "user": "Kagami",
        "landuse": "construction",
        "id": "way/157838220",
        "name": "國立臺南大學七股校區"
      }
    },
    {
      "geometry": {
        "type": "Point",
        "coordinates": [
          120.21432005081131,
          22.98991674248167
        ]
      },
      "type": "Feature",
      "id": "way/159276147",
      "properties": {
        "changeset": "22805131",
        "amenity": "university",
        "uid": "189328",
        "timestamp": "2014-06-08T08:27:20Z",
        "version": "5",
        "user": "Kagami",
        "id": "way/159276147",
        "name": "台南神學院"
      }
    },
    {
      "geometry": {
        "type": "Point",
        "coordinates": [
          120.96482815837035,
          24.793103584145882
        ]
      },
      "type": "Feature",
      "id": "way/161201501",
      "properties": {
        "changeset": "43494708",
        "amenity": "university",
        "emergency:social_facility:id": "HCT - 002 - 008",
        "uid": "274857",
        "old_name:zh": "新竹教育大學",
        "old_alt_name": "竹教大",
        "id": "way/161201501",
        "addr:housenumber": "521",
        "emergency:social_facility": "shelter",
        "emergency:ref": "http://www.hcfd.gov.tw/file/download_6/b008.pdf",
        "wikipedia": "zh:國立新竹教育大學",
        "name": "清華大學南大校區",
        "version": "10",
        "emergency:social_facility:for": "displaced_people",
        "name:zh": "清華大學南大校區",
        "email": "god@mail.nhcue.edu.tw",
        "website": "http://www.nhcue.edu.tw/",
        "emergency": "assembly_point",
        "timestamp": "2016-11-08T18:14:26Z",
        "addr:full": "300新竹市南大路521號",
        "phone": "+886 3 521 3132",
        "user": "Supaplex",
        "old_name": "新竹教育大學",
        "addr:street": "南大路",
        "emergency:amenity": "social_facility",
        "name:en": "National Tsing Hua University Nanda Campus",
        "addr:city": "新竹市",
        "official_name": "國立清華大學南大校區",
        "addr:postcode": "300",
        "emergency:social_facility:opening_hours": "closed",
        "old_official_name": "國立新竹教育大學",
        "emergency:operator:phone": "035229508",
        "old_name:en": "National Hsinchu University of Education"
      }
    },
    {
      "geometry": {
        "type": "Point",
        "coordinates": [
          120.49505769146917,
          23.868227925601783
        ]
      },
      "type": "Feature",
      "id": "way/162057735",
      "properties": {
        "changeset": "11495391",
        "amenity": "university",
        "uid": "269097",
        "timestamp": "2012-05-04T08:01:01Z",
        "version": "1",
        "user": "zinklink",
        "addr:postcode": "52345",
        "addr:street": "彰化縣埤頭鄉文化路369號",
        "name:zh": "明道大學",
        "id": "way/162057735",
        "name": "明道大學"
      }
    },
    {
      "geometry": {
        "type": "Point",
        "coordinates": [
          120.43329190365246,
          23.535885935159154
        ]
      },
      "type": "Feature",
      "id": "way/162966770",
      "properties": {
        "website": "http://www.wfu.edu.tw/wufeng/",
        "changeset": "33675485",
        "amenity": "university",
        "alt_name": "Wufeng University",
        "uid": "651429",
        "timestamp": "2015-08-30T04:39:32Z",
        "addr:housenumber": "117 號",
        "wikipedia": "zh:%E5%90%B3%E9%B3%B3%E7%A7%91%E6%8A%80%E5%A4%A7%E5%AD%B8",
        "phone": "5-226-7125",
        "version": "4",
        "user": "費達諾",
        "addr:postcode": "62153",
        "addr:street": "建國路二段",
        "id": "way/162966770",
        "name": "吳鳳科技大學"
      }
    },
    {
      "geometry": {
        "type": "Point",
        "coordinates": [
          120.15606451871535,
          23.060385499950836
        ]
      },
      "type": "Feature",
      "id": "way/163904938",
      "properties": {
        "website": "http://www.ukn.edu.tw/",
        "changeset": "36341314",
        "amenity": "university",
        "name:en": "University of Kang Ning",
        "uid": "1215520",
        "addr:district": "安南區",
        "timestamp": "2016-01-03T16:08:47Z",
        "addr:full": "70970臺南市安南區安中路五段188號",
        "addr:housenumber": "188",
        "addr:city": "臺南市",
        "phone": "+886 6 255 2500",
        "version": "3",
        "user": "bananatw",
        "addr:postcode": "70970",
        "name:zh": "康寧大學",
        "addr:street": "安中路五段",
        "ref": "1059",
        "id": "way/163904938",
        "name": "康寧大學"
      }
    },
    {
      "geometry": {
        "type": "Point",
        "coordinates": [
          120.29683596242506,
          23.06628639184264
        ]
      },
      "type": "Feature",
      "id": "way/164923035",
      "properties": {
        "changeset": "25766187",
        "amenity": "university",
        "uid": "189328",
        "timestamp": "2014-09-30T12:07:03Z",
        "version": "2",
        "user": "Kagami",
        "id": "way/164923035",
        "name": "遠東科技大學"
      }
    },
    {
      "geometry": {
        "type": "Point",
        "coordinates": [
          120.5348034794325,
          23.692580338046714
        ]
      },
      "type": "Feature",
      "id": "way/167824589",
      "properties": {
        "changeset": "33087356",
        "amenity": "university",
        "name:en": "National Yunlin University of Science & Technology",
        "uid": "1942781",
        "timestamp": "2015-08-04T04:58:57Z",
        "version": "4",
        "user": "yellowsoar",
        "id": "way/167824589",
        "name": "雲林科技大學"
      }
    },
    {
      "geometry": {
        "type": "Point",
        "coordinates": [
          120.2525900332132,
          22.995970715820096
        ]
      },
      "type": "Feature",
      "id": "way/170088095",
      "properties": {
        "changeset": "43028019",
        "amenity": "university",
        "uid": "24561",
        "timestamp": "2016-10-20T09:44:02Z",
        "version": "12",
        "user": "seke",
        "id": "way/170088095",
        "name": "崑山科技大學"
      }
    },
    {
      "geometry": {
        "type": "Point",
        "coordinates": [
          120.27487474775718,
          22.93720293297809
        ]
      },
      "type": "Feature",
      "id": "way/172134934",
      "properties": {
        "changeset": "13686482",
        "amenity": "university",
        "uid": "121778",
        "timestamp": "2012-10-30T13:04:15Z",
        "version": "2",
        "user": "wenchin",
        "id": "way/172134934",
        "name": "成功大學航太實驗場"
      }
    },
    {
      "geometry": {
        "type": "Point",
        "coordinates": [
          121.56591432272599,
          25.08725036180832
        ]
      },
      "type": "Feature",
      "id": "way/172360099",
      "properties": {
        "changeset": "40772360",
        "uid": "274857",
        "barrier": "wall",
        "timestamp": "2016-07-16T03:27:04Z",
        "version": "5",
        "user": "Supaplex",
        "id": "way/172360099"
      }
    },
    {
      "geometry": {
        "type": "Point",
        "coordinates": [
          120.22791652528326,
          22.921989307467918
        ]
      },
      "type": "Feature",
      "id": "way/175343722",
      "properties": {
        "changeset": "34608328",
        "amenity": "university",
        "uid": "189328",
        "barrier": "wall",
        "timestamp": "2015-10-13T10:40:44Z",
        "wikipedia": "zh:嘉南藥理大學",
        "version": "8",
        "user": "Kagami",
        "old_name": "嘉南藥理學院",
        "id": "way/175343722",
        "name": "嘉南藥理大學"
      }
    },
    {
      "geometry": {
        "type": "Point",
        "coordinates": [
          120.71157761462734,
          24.078895980741606
        ]
      },
      "type": "Feature",
      "id": "way/177477395",
      "properties": {
        "changeset": "12831025",
        "amenity": "university",
        "uid": "271758",
        "timestamp": "2012-08-23T10:30:33Z",
        "version": "1",
        "user": "Yoxem",
        "id": "way/177477395",
        "name": "中興大學農業試驗場"
      }
    },
    {
      "geometry": {
        "type": "Point",
        "coordinates": [
          120.71475974271539,
          24.068532742412128
        ]
      },
      "type": "Feature",
      "id": "way/177524022",
      "properties": {
        "changeset": "24144521",
        "amenity": "university",
        "int_name": "Chaoyang University of Technology",
        "uid": "1708566",
        "timestamp": "2014-07-14T16:58:30Z",
        "is_in:zh": "霧峰區",
        "version": "5",
        "user": "jeffwang",
        "old_name": "朝陽技術學院",
        "is_in": "Wufeng0 Dist.",
        "id": "way/177524022",
        "name": "朝陽科技大學"
      }
    },
    {
      "geometry": {
        "type": "Point",
        "coordinates": [
          120.3736683964922,
          23.188645703505077
        ]
      },
      "type": "Feature",
      "id": "way/177966579",
      "properties": {
        "addr:housenumber": "66",
        "changeset": "27168698",
        "amenity": "university",
        "uid": "2324346",
        "timestamp": "2014-12-01T23:28:01Z",
        "addr:city": "台南市官田區大崎里",
        "version": "4",
        "user": "tajvano",
        "addr:postcode": "720",
        "id": "way/177966579",
        "name": "國立臺南藝術大學"
      }
    },
    {
      "geometry": {
        "type": "Point",
        "coordinates": [
          121.19173572167401,
          24.968396510384714
        ]
      },
      "type": "Feature",
      "id": "way/179149377",
      "properties": {
        "addr:housenumber": "300",
        "changeset": "42019872",
        "amenity": "university",
        "name:en": "National Central University",
        "int_name": "National Central University",
        "uid": "3888459",
        "short_name": "NCU",
        "addr:housename": "國立中央大學",
        "timestamp": "2016-09-09T08:35:05Z",
        "wikipedia": "zh:國立中央大學",
        "addr:postcode": "320",
        "addr:city": "桃園市",
        "version": "16",
        "user": "何碩桓",
        "addr:district": "中壢區",
        "addr:street": "中大路",
        "name:zh": "國立中央大學",
        "id": "way/179149377",
        "name": "國立中央大學"
      }
    },
    {
      "geometry": {
        "type": "Point",
        "coordinates": [
          121.50794519754979,
          24.981204842407514
        ]
      },
      "type": "Feature",
      "id": "way/181316726",
      "properties": {
        "emergency:amenity:capacity": "1447",
        "changeset": "41608766",
        "amenity": "university",
        "emergency:social_facility:id": "SF235-0009",
        "uid": "4426524",
        "emergency:shelter_type": "floods earthquake debris flow tsunami",
        "emergency:social_facility:source": "公所",
        "id": "way/181316726",
        "addr:housenumber": "111",
        "addr:town": "中和區",
        "addr:district": "中和區",
        "emergency:social_facility": "shelter",
        "wikipedia": "zh:華夏科技大學",
        "name": "華夏科技大學",
        "version": "5",
        "addr:village": "華新里",
        "name:zh": "華夏科技大學",
        "website": "http://www.hwh.edu.tw/",
        "old_ref": "1191",
        "timestamp": "2016-08-22T08:06:26Z",
        "addr:full": "新北市中和區華新里中和區工專路111號",
        "emergency:name": "華夏科技大學",
        "emergency:amenity: suitable for social vulnerable groups": "yes",
        "phone": "+886 2 8941 5100",
        "user": "BaconLin",
        "old_name": "華夏農業專科學校;華夏工業專科學校;華夏工商專科學校;華夏技術學院",
        "service area": "頂南里 ;華新里 ;華南里 ;忠孝里 ;橫路里 ;內南里 ;正南里",
        "emergency:amenity:capacity:outdoor": "0",
        "addr:street": "工專路",
        "emergency:amenity": "social_facility",
        "name:en": "Hwa Hsia University of Technology",
        "emergency:amenity:capacity:indoor": "1447",
        "addr:city": "新北市",
        "ref": "1076",
        "emergency:amenity: receiving area:indoor": "5791",
        "addr:postcode": "23568",
        "addr:country": "TW"
      }
    },
    {
      "geometry": {
        "type": "Point",
        "coordinates": [
          120.23846856515402,
          23.037237613713675
        ]
      },
      "type": "Feature",
      "id": "way/182570023",
      "properties": {
        "website": "http://www.tut.edu.tw/",
        "changeset": "34816441",
        "amenity": "university",
        "name:en": "Tainan University of Technology",
        "uid": "3271093",
        "addr:district": "永康區",
        "timestamp": "2015-10-23T09:09:47Z",
        "addr:housenumber": "529",
        "wikipedia": "zh:台南應用科技大學",
        "addr:city": "臺南市",
        "phone": "+886 6 253-2106",
        "version": "4",
        "user": "abcKuan",
        "addr:postcode": "71002",
        "addr:street": "中正路",
        "name:zh": "台南應用科技大學",
        "id": "way/182570023",
        "name": "台南應用科技大學"
      }
    },
    {
      "geometry": {
        "type": "Point",
        "coordinates": [
          121.53568150171755,
          25.008165041414138
        ]
      },
      "type": "Feature",
      "id": "way/184299164",
      "properties": {
        "changeset": "42556668",
        "uid": "3134177",
        "barrier": "wall",
        "timestamp": "2016-10-01T05:26:45Z",
        "version": "27",
        "user": "Asio_Tempest",
        "id": "way/184299164"
      }
    },
    {
      "geometry": {
        "type": "Point",
        "coordinates": [
          121.5418145947238,
          25.01344278470999
        ]
      },
      "type": "Feature",
      "id": "way/185239009",
      "properties": {
        "changeset": "41380418",
        "uid": "274857",
        "barrier": "wall",
        "timestamp": "2016-08-11T04:59:51Z",
        "source": "http://www.ntust.edu.tw",
        "version": "11",
        "user": "Supaplex",
        "id": "way/185239009"
      }
    },
    {
      "geometry": {
        "type": "Point",
        "coordinates": [
          121.78135058062301,
          25.150756991502952
        ]
      },
      "type": "Feature",
      "id": "way/197748876",
      "properties": {
        "changeset": "33841621",
        "amenity": "school",
        "uid": "2334228",
        "timestamp": "2015-09-06T20:28:35Z",
        "wheelchair": "limited",
        "version": "9",
        "user": "燈阿燈",
        "id": "way/197748876",
        "name": "工學院校區"
      }
    },
    {
      "geometry": {
        "type": "Point",
        "coordinates": [
          121.52926637014713,
          25.027341001982933
        ]
      },
      "type": "Feature",
      "id": "way/198002704",
      "properties": {
        "changeset": "43524795",
        "uid": "274857",
        "barrier": "wall",
        "timestamp": "2016-11-10T05:01:36Z",
        "version": "8",
        "user": "Supaplex",
        "id": "way/198002704",
        "description": "師大圖書館校區"
      }
    },
    {
      "geometry": {
        "type": "Point",
        "coordinates": [
          121.54518942897046,
          25.02340879951975
        ]
      },
      "type": "Feature",
      "id": "way/198269015",
      "properties": {
        "changeset": "34648346",
        "uid": "2554385",
        "barrier": "wall",
        "timestamp": "2015-10-15T07:17:30Z",
        "version": "8",
        "user": "j123er",
        "id": "way/198269015"
      }
    },
    {
      "geometry": {
        "type": "Point",
        "coordinates": [
          120.31036941002256,
          22.64722053928512
        ]
      },
      "type": "Feature",
      "id": "way/198707675",
      "properties": {
        "building": "university",
        "changeset": "14459936",
        "uid": "116515",
        "timestamp": "2012-12-30T06:18:02Z",
        "version": "2",
        "user": "mcdlee",
        "id": "way/198707675",
        "name": "勵學大樓"
      }
    },
    {
      "geometry": {
        "type": "Point",
        "coordinates": [
          120.31066881958238,
          22.646717233248044
        ]
      },
      "type": "Feature",
      "id": "way/198707679",
      "properties": {
        "building": "university",
        "changeset": "14459936",
        "fixme": "border of the building is not sure",
        "uid": "116515",
        "timestamp": "2012-12-30T06:18:02Z",
        "version": "2",
        "user": "mcdlee",
        "id": "way/198707679",
        "name": "國際學術研究大樓"
      }
    },
    {
      "geometry": {
        "type": "Point",
        "coordinates": [
          120.31086720016658,
          22.645668520511375
        ]
      },
      "type": "Feature",
      "id": "way/198707680",
      "properties": {
        "building": "yes",
        "changeset": "14459750",
        "uid": "116515",
        "timestamp": "2012-12-30T05:31:21Z",
        "version": "1",
        "user": "mcdlee",
        "id": "way/198707680",
        "name": "大講堂"
      }
    },
    {
      "geometry": {
        "type": "Point",
        "coordinates": [
          120.31132953285872,
          22.64773611456796
        ]
      },
      "type": "Feature",
      "id": "way/198707681",
      "properties": {
        "building": "dormitory",
        "changeset": "18736392",
        "uid": "360392",
        "timestamp": "2013-11-05T20:20:53Z",
        "version": "2",
        "user": "maxerickson",
        "id": "way/198707681",
        "name": "學生宿舍北館"
      }
    },
    {
      "geometry": {
        "type": "Point",
        "coordinates": [
          120.31101055554765,
          22.647452912449438
        ]
      },
      "type": "Feature",
      "id": "way/198707682",
      "properties": {
        "building": "dormitory",
        "changeset": "18736392",
        "uid": "360392",
        "timestamp": "2013-11-05T20:20:53Z",
        "version": "2",
        "user": "maxerickson",
        "id": "way/198707682",
        "name": "學生宿舍南館"
      }
    },
    {
      "geometry": {
        "type": "Point",
        "coordinates": [
          120.31112345933023,
          22.648104083680476
        ]
      },
      "type": "Feature",
      "id": "way/198707683",
      "properties": {
        "building": "dormitory",
        "changeset": "18736392",
        "uid": "360392",
        "timestamp": "2013-11-05T20:20:53Z",
        "version": "2",
        "user": "maxerickson",
        "id": "way/198707683",
        "name": "學生宿舍新館"
      }
    },
    {
      "geometry": {
        "type": "Point",
        "coordinates": [
          120.31070671319753,
          22.646143967717965
        ]
      },
      "type": "Feature",
      "id": "way/198707684",
      "properties": {
        "building": "university",
        "changeset": "14459936",
        "uid": "116515",
        "timestamp": "2012-12-30T06:18:02Z",
        "version": "2",
        "user": "mcdlee",
        "id": "way/198707684"
      }
    },
    {
      "geometry": {
        "type": "Point",
        "coordinates": [
          120.31061683513937,
          22.646381174772646
        ]
      },
      "type": "Feature",
      "id": "way/198707685",
      "properties": {
        "building": "university",
        "changeset": "14459936",
        "uid": "116515",
        "timestamp": "2012-12-30T06:18:03Z",
        "version": "2",
        "user": "mcdlee",
        "id": "way/198707685"
      }
    },
    {
      "geometry": {
        "type": "Point",
        "coordinates": [
          120.31074548416167,
          22.647151141284972
        ]
      },
      "type": "Feature",
      "id": "way/198707686",
      "properties": {
        "building": "yes",
        "changeset": "14459750",
        "amenity": "library",
        "uid": "116515",
        "timestamp": "2012-12-30T05:31:22Z",
        "version": "1",
        "user": "mcdlee",
        "id": "way/198707686",
        "name": "杜聰明圖書館"
      }
    },
    {
      "geometry": {
        "type": "Point",
        "coordinates": [
          120.31082120773023,
          22.64752977749083
        ]
      },
      "type": "Feature",
      "id": "way/198707688",
      "properties": {
        "building": "yes",
        "changeset": "14459750",
        "uid": "116515",
        "timestamp": "2012-12-30T05:31:22Z",
        "version": "1",
        "user": "mcdlee",
        "id": "way/198707688",
        "name": "校友會館"
      }
    },
    {
      "geometry": {
        "type": "Point",
        "coordinates": [
          120.31110441722272,
          22.64703462247334
        ]
      },
      "type": "Feature",
      "id": "way/198707689",
      "properties": {
        "building": "university",
        "changeset": "14459936",
        "uid": "116515",
        "timestamp": "2012-12-30T06:18:03Z",
        "version": "2",
        "user": "mcdlee",
        "id": "way/198707689",
        "name": "濟世大樓"
      }
    },
    {
      "geometry": {
        "type": "Point",
        "coordinates": [
          120.31056168101199,
          22.64782062176967
        ]
      },
      "type": "Feature",
      "id": "way/198707690",
      "properties": {
        "building": "university",
        "changeset": "14459936",
        "uid": "116515",
        "timestamp": "2012-12-30T06:18:03Z",
        "version": "2",
        "user": "mcdlee",
        "id": "way/198707690",
        "name": "第一教學大樓"
      }
    },
    {
      "geometry": {
        "type": "Point",
        "coordinates": [
          120.31102971261829,
          22.645763678654006
        ]
      },
      "type": "Feature",
      "id": "way/198707691",
      "properties": {
        "building": "university",
        "changeset": "14459936",
        "uid": "116515",
        "timestamp": "2012-12-30T06:18:03Z",
        "version": "2",
        "user": "mcdlee",
        "id": "way/198707691",
        "name": "綜合實驗大樓"
      }
    },
    {
      "geometry": {
        "type": "Point",
        "coordinates": [
          120.31067532906158,
          22.648249804587806
        ]
      },
      "type": "Feature",
      "id": "way/198707692",
      "properties": {
        "changeset": "14460577",
        "alt_name": "風雨球場",
        "uid": "116515",
        "timestamp": "2012-12-30T08:30:01Z",
        "leisure": "pitch",
        "version": "2",
        "user": "mcdlee",
        "sport": "multi",
        "id": "way/198707692",
        "name": "綜合集合場"
      }
    },
    {
      "geometry": {
        "type": "Point",
        "coordinates": [
          120.31032514214351,
          22.645688335983685
        ]
      },
      "type": "Feature",
      "id": "way/198707694",
      "properties": {
        "building": "yes",
        "changeset": "14459750",
        "uid": "116515",
        "timestamp": "2012-12-30T05:31:22Z",
        "version": "1",
        "user": "mcdlee",
        "id": "way/198707694",
        "name": "西棟大樓"
      }
    },
    {
      "geometry": {
        "type": "Point",
        "coordinates": [
          120.30952996161689,
          22.649002466446312
        ]
      },
      "type": "Feature",
      "id": "way/198707695",
      "properties": {
        "building": "university",
        "changeset": "14459936",
        "uid": "116515",
        "timestamp": "2012-12-30T06:18:03Z",
        "version": "2",
        "user": "mcdlee",
        "id": "way/198707695",
        "name": "醫學研究大樓"
      }
    },
    {
      "geometry": {
        "type": "Point",
        "coordinates": [
          120.31094884634663,
          22.647877402835977
        ]
      },
      "type": "Feature",
      "id": "way/198707697",
      "properties": {
        "building": "dormitory",
        "changeset": "18736392",
        "uid": "360392",
        "timestamp": "2013-11-05T20:20:53Z",
        "version": "2",
        "user": "maxerickson",
        "id": "way/198707697",
        "name": "醫護宿舍"
      }
    },
    {
      "geometry": {
        "type": "Point",
        "coordinates": [
          120.30963834670128,
          22.648151094961005
        ]
      },
      "type": "Feature",
      "id": "way/198707698",
      "properties": {
        "changeset": "14459750",
        "uid": "116515",
        "timestamp": "2012-12-30T05:31:23Z",
        "leisure": "track",
        "version": "1",
        "user": "mcdlee",
        "id": "way/198707698"
      }
    },
    {
      "geometry": {
        "type": "Point",
        "coordinates": [
          120.30935549965473,
          22.64733465340214
        ]
      },
      "type": "Feature",
      "id": "way/198707699",
      "properties": {
        "changeset": "14460577",
        "uid": "116515",
        "timestamp": "2012-12-30T08:30:01Z",
        "leisure": "pitch",
        "version": "2",
        "user": "mcdlee",
        "sport": "volleyball",
        "id": "way/198707699"
      }
    },
    {
      "geometry": {
        "type": "Point",
        "coordinates": [
          120.30962636948769,
          22.647224750851667
        ]
      },
      "type": "Feature",
      "id": "way/198707700",
      "properties": {
        "changeset": "14459750",
        "uid": "116515",
        "barrier": "fence",
        "timestamp": "2012-12-30T05:31:23Z",
        "fence_type": "barbed_wire",
        "leisure": "pitch",
        "version": "1",
        "user": "mcdlee",
        "sport": "tennis",
        "id": "way/198707700"
      }
    },
    {
      "geometry": {
        "type": "Point",
        "coordinates": [
          120.31048999237147,
          22.648510814914633
        ]
      },
      "type": "Feature",
      "id": "way/198707701",
      "properties": {
        "changeset": "14459750",
        "amenity": "parking",
        "uid": "116515",
        "timestamp": "2012-12-30T05:31:23Z",
        "version": "1",
        "user": "mcdlee",
        "parking": "surface",
        "id": "way/198707701"
      }
    },
    {
      "geometry": {
        "type": "Point",
        "coordinates": [
          120.27277277902691,
          22.60859120447874
        ]
      },
      "type": "Feature",
      "id": "way/204881790",
      "properties": {
        "website": "http://www.nkmu.edu.tw/",
        "changeset": "20026888",
        "amenity": "university",
        "name:en": "National Kaohsiung Marine University",
        "uid": "1876091",
        "addr:housename": "旗津校區",
        "timestamp": "2014-01-16T03:45:17Z",
        "wikipedia": "zh:國立高雄海洋科技大學",
        "addr:city": "高雄市",
        "note": "旗津校區",
        "phone": "+886 7 810 0888",
        "version": "2",
        "user": "周小胖",
        "addr:housenumber": "482號",
        "addr:street": "中州三路",
        "id": "way/204881790",
        "name": "高雄海洋科技大學"
      }
    },
    {
      "geometry": {
        "type": "Point",
        "coordinates": [
          120.2704970002398,
          22.611939090504006
        ]
      },
      "type": "Feature",
      "id": "way/204891520",
      "properties": {
        "changeset": "20052571",
        "amenity": "university",
        "uid": "189328",
        "timestamp": "2014-01-17T15:42:45Z",
        "version": "2",
        "user": "Kagami",
        "id": "way/204891520",
        "name": "高海科大旗津校區"
      }
    },
    {
      "geometry": {
        "type": "Point",
        "coordinates": [
          121.53811812566074,
          25.05656367779238
        ]
      },
      "type": "Feature",
      "id": "way/205896951",
      "properties": {
        "changeset": "28939761",
        "uid": "274857",
        "barrier": "wall",
        "timestamp": "2015-02-18T18:39:24Z",
        "version": "5",
        "user": "Supaplex",
        "id": "way/205896951"
      }
    },
    {
      "geometry": {
        "type": "Point",
        "coordinates": [
          120.34630282851636,
          22.566340439445156
        ]
      },
      "type": "Feature",
      "id": "way/206377592",
      "properties": {
        "changeset": "15100319",
        "amenity": "university",
        "uid": "189328",
        "timestamp": "2013-02-20T13:27:43Z",
        "version": "1",
        "user": "Kagami",
        "id": "way/206377592",
        "name": "高雄空中大學"
      }
    },
    {
      "geometry": {
        "type": "Point",
        "coordinates": [
          120.92895115182488,
          23.95073540180806
        ]
      },
      "type": "Feature",
      "id": "way/207630685",
      "properties": {
        "addr:housenumber": "1號",
        "changeset": "34630435",
        "amenity": "university",
        "uid": "1439333",
        "timestamp": "2015-10-14T10:54:05Z",
        "wikipedia": "zh:Ncnu",
        "addr:city": "南投縣埔里鎮",
        "source": "http://www.ncnu.edu.tw",
        "version": "7",
        "user": "Littlebtc",
        "addr:postcode": "545",
        "addr:street": "大學路",
        "id": "way/207630685",
        "name": "國立暨南國際大學"
      }
    },
    {
      "geometry": {
        "type": "Point",
        "coordinates": [
          121.54243332547813,
          25.05861466458511
        ]
      },
      "type": "Feature",
      "id": "way/208549334",
      "properties": {
        "addr:housenumber": "67",
        "changeset": "43677314",
        "amenity": "university",
        "uid": "274857",
        "addr:district": "中山區",
        "timestamp": "2016-11-15T18:15:08Z",
        "addr:full": "10478臺北市中山區民生東路三段67號",
        "addr:city": "臺北市",
        "phone": "+886 2 2502 4654",
        "version": "6",
        "user": "Supaplex",
        "addr:postcode": "10478",
        "addr:street": "民生東路三段",
        "id": "way/208549334",
        "name": "國立臺北大學民生校區"
      }
    },
    {
      "geometry": {
        "type": "Point",
        "coordinates": [
          120.73585610499141,
          24.17267204501083
        ]
      },
      "type": "Feature",
      "id": "way/209141451",
      "properties": {
        "website": "http://www.ctust.edu.tw/",
        "changeset": "34561903",
        "amenity": "university",
        "name:en": "Central Taiwan University of Science and Technology",
        "uid": "1215520",
        "addr:district": "北屯區",
        "timestamp": "2015-10-11T04:04:45Z",
        "addr:full": "40601臺中市北屯區廍子路666號",
        "wikipedia": "zh:中臺科技大學",
        "addr:city": "臺中市",
        "phone": "+886-4-2239-1647",
        "version": "4",
        "user": "bananatw",
        "addr:postcode": "40601",
        "id": "way/209141451",
        "addr:housenumber": "666",
        "addr:street": "廍子路",
        "name:zh": "中臺科技大學",
        "addr:country": "TW",
        "name": "中臺科技大學"
      }
    },
    {
      "geometry": {
        "type": "Point",
        "coordinates": [
          120.73005004555426,
          24.145290266139767
        ]
      },
      "type": "Feature",
      "id": "way/209143073",
      "properties": {
        "changeset": "30709144",
        "amenity": "university",
        "uid": "153500",
        "timestamp": "2015-05-02T02:39:29Z",
        "version": "4",
        "user": "JingGeocacher",
        "id": "way/209143073",
        "name": "國立勤益科技大學"
      }
    },
    {
      "geometry": {
        "type": "Point",
        "coordinates": [
          120.9819514842443,
          24.796498049011344
        ]
      },
      "type": "Feature",
      "id": "way/211103997",
      "properties": {
        "building": "yes",
        "changeset": "34186150",
        "amenity": "university",
        "name:en": "BioTech Experiment Building 2",
        "uid": "2910947",
        "timestamp": "2015-09-22T15:29:31Z",
        "note": "郵局ATM",
        "version": "5",
        "user": "sky8109242004",
        "id": "way/211103997",
        "name": "生科實驗二館"
      }
    },
    {
      "geometry": {
        "type": "Point",
        "coordinates": [
          121.52119638251745,
          25.067325094574006
        ]
      },
      "type": "Feature",
      "id": "way/211853511",
      "properties": {
        "website": "http://www.ttu.edu.tw/",
        "changeset": "39314552",
        "amenity": "university",
        "name:en": "Tatung University",
        "uid": "274857",
        "addr:district": "中山區",
        "addr:full:en": "No.40, Sec. 3,Zhongshan N. Rd., Taipei City 104, Taiwan(R.O.C)",
        "timestamp": "2016-05-14T16:08:35Z",
        "addr:full": "台北市中山區中山北路三段40號",
        "wikipedia": "zh:大同大學 (台灣)",
        "addr:city": "台北市",
        "phone": "+886 2 2182 2928",
        "version": "9",
        "user": "Supaplex",
        "addr:housenumber": "40",
        "addr:street": "中山北路三段",
        "id": "way/211853511",
        "name": "私立大同大學"
      }
    },
    {
      "geometry": {
        "type": "Point",
        "coordinates": [
          120.26709044602141,
          22.840740282874687
        ]
      },
      "type": "Feature",
      "id": "way/212721011",
      "properties": {
        "changeset": "15503034",
        "amenity": "university",
        "uid": "189328",
        "timestamp": "2013-03-26T13:08:41Z",
        "version": "1",
        "user": "Kagami",
        "id": "way/212721011",
        "name": "高苑科技大學"
      }
    },
    {
      "geometry": {
        "type": "Point",
        "coordinates": [
          120.97973781445333,
          24.79740198281526
        ]
      },
      "type": "Feature",
      "id": "way/213110917",
      "properties": {
        "building": "residential",
        "changeset": "20069263",
        "amenity": "university",
        "name:en": "Ying Hsuan",
        "uid": "1093364",
        "timestamp": "2014-01-18T16:48:11Z",
        "version": "4",
        "user": "PkmX",
        "id": "way/213110917",
        "name": "逸軒"
      }
    },
    {
      "geometry": {
        "type": "Point",
        "coordinates": [
          120.9821463832488,
          24.79586957513071
        ]
      },
      "type": "Feature",
      "id": "way/213112848",
      "properties": {
        "building": "yes",
        "changeset": "21156788",
        "amenity": "university",
        "name:en": "NCTU Innovation Incubation Center",
        "uid": "1960024",
        "timestamp": "2014-03-17T15:24:35Z",
        "addr:city": "新竹市",
        "version": "5",
        "user": "BuganiniQ",
        "addr:housenumber": "40",
        "addr:street": "學府路",
        "id": "way/213112848",
        "name": "創新育成中心"
      }
    },
    {
      "geometry": {
        "type": "Point",
        "coordinates": [
          121.46882423396391,
          25.08716554600477
        ]
      },
      "type": "Feature",
      "id": "way/215457112",
      "properties": {
        "changeset": "42582203",
        "amenity": "university",
        "uid": "24561",
        "timestamp": "2016-10-02T13:11:46Z",
        "version": "5",
        "user": "seke",
        "id": "way/215457112",
        "name": "國立空中大學"
      }
    },
    {
      "geometry": {
        "type": "Point",
        "coordinates": [
          120.98296389562304,
          24.797089618707314
        ]
      },
      "type": "Feature",
      "id": "way/216735584",
      "properties": {
        "building": "yes",
        "changeset": "20069263",
        "amenity": "university",
        "name:en": "Lab Building 1",
        "uid": "1093364",
        "timestamp": "2014-01-18T16:48:08Z",
        "version": "4",
        "user": "PkmX",
        "id": "way/216735584",
        "name": "實驗一館"
      }
    },
    {
      "geometry": {
        "type": "Point",
        "coordinates": [
          120.98348203738864,
          24.79770318863252
        ]
      },
      "type": "Feature",
      "id": "way/216735589",
      "properties": {
        "changeset": "20069263",
        "amenity": "university",
        "name:en": "Zhu-Ming Building",
        "uid": "1093364",
        "timestamp": "2014-01-18T16:48:11Z",
        "version": "4",
        "user": "PkmX",
        "id": "way/216735589",
        "name": "竹銘館"
      }
    },
    {
      "geometry": {
        "type": "Point",
        "coordinates": [
          120.98278995325666,
          24.79833714213684
        ]
      },
      "type": "Feature",
      "id": "way/216735903",
      "properties": {
        "building": "yes",
        "changeset": "20069263",
        "amenity": "university",
        "name:en": "Lab Building 2",
        "uid": "1093364",
        "timestamp": "2014-01-18T16:48:09Z",
        "version": "4",
        "user": "PkmX",
        "id": "way/216735903",
        "name": "實驗二館"
      }
    },
    {
      "geometry": {
        "type": "Point",
        "coordinates": [
          120.98389843510974,
          24.797331881502824
        ]
      },
      "type": "Feature",
      "id": "way/216736703",
      "properties": {
        "changeset": "20069263",
        "amenity": "university",
        "name:en": "Student Activity Center",
        "uid": "1093364",
        "timestamp": "2014-01-18T16:48:10Z",
        "version": "4",
        "user": "PkmX",
        "id": "way/216736703",
        "name": "學生活動中心"
      }
    },
    {
      "geometry": {
        "type": "Point",
        "coordinates": [
          120.98276371669729,
          24.798444041871594
        ]
      },
      "type": "Feature",
      "id": "way/216737710",
      "properties": {
        "building": "yes",
        "changeset": "20069263",
        "amenity": "university",
        "name:en": "Nano Facility Center",
        "uid": "1093364",
        "timestamp": "2014-01-18T16:48:09Z",
        "version": "4",
        "user": "PkmX",
        "id": "way/216737710",
        "name": "奈米中心"
      }
    },
    {
      "geometry": {
        "type": "Point",
        "coordinates": [
          120.98183165170674,
          24.798325941045483
        ]
      },
      "type": "Feature",
      "id": "way/216739601",
      "properties": {
        "building": "yes",
        "changeset": "20070421",
        "amenity": "university",
        "name:en": "Biotech Experiment Building",
        "uid": "1093364",
        "timestamp": "2014-01-18T17:46:29Z",
        "version": "6",
        "user": "PkmX",
        "id": "way/216739601",
        "name": "生科實驗館"
      }
    },
    {
      "geometry": {
        "type": "Point",
        "coordinates": [
          121.46368413003025,
          25.02105376277688
        ]
      },
      "type": "Feature",
      "id": "way/217454599",
      "properties": {
        "changeset": "43048868",
        "uid": "24561",
        "barrier": "wall",
        "timestamp": "2016-10-21T02:35:10Z",
        "version": "10",
        "user": "seke",
        "id": "way/217454599"
      }
    },
    {
      "geometry": {
        "type": "Point",
        "coordinates": [
          121.38200488908346,
          24.937022159514395
        ]
      },
      "type": "Feature",
      "id": "way/218564968",
      "properties": {
        "changeset": "39338899",
        "amenity": "university",
        "uid": "165061",
        "timestamp": "2016-05-15T20:44:34Z",
        "official_name": "國家教育研完院三峽院區",
        "version": "5",
        "user": "mapper999",
        "id": "way/218564968",
        "name": "國教院三峽院區"
      }
    },
    {
      "geometry": {
        "type": "Point",
        "coordinates": [
          120.4011148759186,
          22.774906592032444
        ]
      },
      "type": "Feature",
      "id": "way/218708944",
      "properties": {
        "changeset": "36714738",
        "amenity": "university",
        "uid": "3550834",
        "timestamp": "2016-01-21T07:50:55Z",
        "version": "3",
        "user": "lim5p5p20",
        "id": "way/218708944",
        "name": "高雄應用科技大學燕巢校區"
      }
    },
    {
      "geometry": {
        "type": "Point",
        "coordinates": [
          120.40626192411797,
          22.786899540570406
        ]
      },
      "type": "Feature",
      "id": "way/218881806",
      "properties": {
        "website": "http://w3.nknu.edu.tw/",
        "changeset": "39306959",
        "amenity": "university",
        "alt_name_1": "高雄師大燕巢校區",
        "alt_name": "高師大燕巢校區",
        "uid": "3319547",
        "barrier": "wall",
        "timestamp": "2016-05-14T09:04:04Z",
        "addr:housenumber": "62",
        "addr:city": "高雄市",
        "phone": "+886 7 7172930",
        "version": "6",
        "user": "s8321414",
        "addr:postcode": "82444",
        "smoking": "no",
        "addr:street": "深中路",
        "id": "way/218881806",
        "name": "高雄師範大學燕巢校區"
      }
    },
    {
      "geometry": {
        "type": "Point",
        "coordinates": [
          121.02179364782457,
          24.825362249130333
        ]
      },
      "type": "Feature",
      "id": "way/219022056",
      "properties": {
        "changeset": "28301788",
        "amenity": "university",
        "uid": "2554385",
        "timestamp": "2015-01-21T08:41:02Z",
        "version": "5",
        "user": "j123er",
        "id": "way/219022056",
        "name": "國立臺灣大學竹北校區"
      }
    },
    {
      "geometry": {
        "type": "Point",
        "coordinates": [
          120.99719487357903,
          24.786774958710154
        ]
      },
      "type": "Feature",
      "id": "way/220021138",
      "properties": {
        "changeset": "43273901",
        "amenity": "university",
        "int_name": "National Chiao Tung University, Guangfu Campus",
        "uid": "161619",
        "emergency:social_facility:capacity": "4610 人",
        "emergency:shelter_type": "避難疏散地點（適用地震災害，適用水災災害）",
        "emergency:social_facility:id": "HCT-001-035",
        "id": "way/220021138",
        "landscape": "flat",
        "building:type": "permanent",
        "addr:housenumber": "1001",
        "short_name": "NCTU;交大;交通大學;交大光復校區;交通大學光復校區",
        "emergency:social_facility": "shelter",
        "emergency:ref": "http://www.hcfd.gov.tw/file/download_6/a035.pdf",
        "wikipedia": "zh:國立交通大學",
        "name": "國立交通大學光復校區",
        "version": "13",
        "emergency:social_facility:for": "displaced_people",
        "building:form": "other",
        "emergency": "assembly_point",
        "building:material": "concrete",
        "timestamp": "2016-10-29T21:55:16Z",
        "emergency:social_facility:phone": "5712121‐51909",
        "user": "FvGordon",
        "addr:street": "大學路",
        "emergency:amenity": "social_facility",
        "name:en": "National Chiao Tung University, Guangfu Campus",
        "emergency:contact:phone": "仙宮里里長 莫克雄",
        "addr:city": "新竹市",
        "addr:postcode": "30010",
        "emergency:operator": "新竹市災害應變中心",
        "emergency:social_facility:opening_hours": "closed",
        "emergency:operator:phone": "‐03‐5229508#331‐337#201‐ 240 或 03‐5283119"
      }
    },
    {
      "geometry": {
        "type": "Point",
        "coordinates": [
          120.99233609626644,
          24.792064000026375
        ]
      },
      "type": "Feature",
      "id": "way/220023250",
      "properties": {
        "changeset": "43813772",
        "amenity": "university",
        "name:en": "National Tsing Hua University",
        "alt_name": "清大",
        "uid": "633676",
        "timestamp": "2016-11-20T02:39:38Z",
        "wikipedia": "zh:國立清華大學",
        "version": "18",
        "user": "richyli",
        "name:zh": "國立清華大學",
        "id": "way/220023250",
        "landscape": "flat",
        "name": "國立清華大學"
      }
    },
    {
      "geometry": {
        "type": "Point",
        "coordinates": [
          120.98178600134776,
          24.797738575166107
        ]
      },
      "type": "Feature",
      "id": "way/220027977",
      "properties": {
        "changeset": "20069263",
        "amenity": "university",
        "name:en": "National Chiao Tung University, Bo'ai Campus",
        "uid": "1093364",
        "short_name": "交大博愛校區",
        "timestamp": "2014-01-18T16:48:09Z",
        "version": "2",
        "user": "PkmX",
        "name:zh": "國立交通大學博愛校區",
        "id": "way/220027977",
        "name": "國立交通大學博愛校區"
      }
    },
    {
      "geometry": {
        "type": "Point",
        "coordinates": [
          121.7539932294006,
          25.13202183036723
        ]
      },
      "type": "Feature",
      "id": "way/221195878",
      "properties": {
        "changeset": "34521590",
        "amenity": "university",
        "uid": "3220182",
        "timestamp": "2015-10-09T02:14:52Z",
        "wheelchair": "no",
        "version": "8",
        "user": "愛兜風的貓",
        "id": "way/221195878",
        "name": "崇右技術學院"
      }
    },
    {
      "geometry": {
        "type": "Point",
        "coordinates": [
          121.26924881626623,
          25.011715277134996
        ]
      },
      "type": "Feature",
      "id": "way/221834336",
      "properties": {
        "website": "http://www.knu.edu.tw",
        "changeset": "42260384",
        "amenity": "university",
        "name:en": "Kainan University",
        "uid": "2094925",
        "addr:district": "蘆竹區",
        "addr:full:en": "No.1 Kainan Road, Luzhu Dist., Taoyuan City 33857, Taiwan, R.O.C.",
        "timestamp": "2016-09-19T03:00:18Z",
        "addr:full": "33857桃園市蘆竹區開南路1號",
        "wikipedia": "zh:開南大學",
        "addr:postcode": "33857",
        "addr:city": "桃園市",
        "phone": "+886 3 341 2500",
        "version": "6",
        "wikidata": "Q11655183",
        "user": "korte walter",
        "old_name": "開南管理學院",
        "addr:housenumber": "1",
        "addr:street": "開南路",
        "id": "way/221834336",
        "name": "開南大學"
      }
    },
    {
      "geometry": {
        "type": "Point",
        "coordinates": [
          120.38981107770141,
          22.602318416905106
        ]
      },
      "type": "Feature",
      "id": "way/221835946",
      "properties": {
        "changeset": "38432078",
        "amenity": "university",
        "uid": "274857",
        "timestamp": "2016-04-09T16:19:15Z",
        "version": "2",
        "user": "Supaplex",
        "id": "way/221835946",
        "name": "輔英科技大學"
      }
    },
    {
      "geometry": {
        "type": "Point",
        "coordinates": [
          120.40651180561937,
          22.725400187277234
        ]
      },
      "type": "Feature",
      "id": "way/221985416",
      "properties": {
        "changeset": "27653101",
        "amenity": "university",
        "uid": "2531309",
        "timestamp": "2014-12-23T15:25:55Z",
        "version": "2",
        "user": "leaflysay",
        "id": "way/221985416",
        "name": "義守大學"
      }
    },
    {
      "geometry": {
        "type": "Point",
        "coordinates": [
          120.9535339284708,
          24.759969066981157
        ]
      },
      "type": "Feature",
      "id": "way/222149133",
      "properties": {
        "addr:housenumber": "707",
        "changeset": "27070610",
        "amenity": "university",
        "name:en": "Chung Hua University",
        "uid": "1224320",
        "timestamp": "2014-11-27T15:53:32Z",
        "addr:city": "新竹市 (Hsinchu City)",
        "version": "4",
        "user": "Jasonzhuocn",
        "addr:postcode": "30012",
        "addr:street": "五福路二段",
        "name:zh": "中華大學",
        "id": "way/222149133",
        "name": "中華大學"
      }
    },
    {
      "geometry": {
        "type": "Point",
        "coordinates": [
          120.6102421823719,
          22.64358741811258
        ]
      },
      "type": "Feature",
      "id": "way/224941422",
      "properties": {
        "changeset": "17114033",
        "amenity": "university",
        "uid": "116515",
        "timestamp": "2013-07-27T14:28:34Z",
        "version": "2",
        "user": "mcdlee",
        "id": "way/224941422",
        "name": "國立屏東科技大學"
      }
    },
    {
      "geometry": {
        "type": "Point",
        "coordinates": [
          120.51185174105325,
          22.657177236497894
        ]
      },
      "type": "Feature",
      "id": "way/225385904",
      "properties": {
        "changeset": "24514915",
        "amenity": "university",
        "uid": "189328",
        "timestamp": "2014-08-03T12:34:34Z",
        "version": "2",
        "user": "Kagami",
        "id": "way/225385904",
        "name": "國立屏東大學屏商校區"
      }
    },
    {
      "geometry": {
        "type": "Point",
        "coordinates": [
          120.64413096062836,
          24.18915025869054
        ]
      },
      "type": "Feature",
      "id": "way/227778004",
      "properties": {
        "website": "http://www.ocu.edu.tw/",
        "changeset": "37835934",
        "fax": "+886 4 2707 5420",
        "name:en": "Overseas Chinese University",
        "uid": "524500",
        "addr:district": "西屯區",
        "timestamp": "2016-03-15T07:17:55Z",
        "wheelchair": "yes",
        "addr:housenumber": "100",
        "wikipedia": "zh:僑光科技大學",
        "amenity": "university",
        "addr:city": "臺中市",
        "phone": "+886 4 2701 6855",
        "version": "6",
        "user": "wheelmap_android",
        "addr:postcode": "40721",
        "id": "way/227778004",
        "addr:street": "僑光路",
        "name:zh": "僑光科技大學",
        "addr:country": "TW",
        "name": "僑光科技大學"
      }
    },
    {
      "geometry": {
        "type": "Point",
        "coordinates": [
          121.14684518648923,
          22.749697373687415
        ]
      },
      "type": "Feature",
      "id": "way/230397297",
      "properties": {
        "website": "http://www.nttu.edu.tw/",
        "changeset": "36080936",
        "amenity": "university",
        "name:en": "National Taitung University",
        "uid": "1215520",
        "official_name": "國立臺東大學",
        "timestamp": "2015-12-21T09:20:29Z",
        "addr:full": "95092臺東縣臺東市大學路二段369號",
        "wikipedia": "zh:國立臺東大學",
        "addr:state": "臺東縣",
        "addr:city": "臺東市",
        "phone": "+886 89 318-855",
        "version": "5",
        "user": "bananatw",
        "addr:postcode": "95002",
        "operator": "教育部",
        "addr:housenumber": "684",
        "addr:street": "中華路一段",
        "name:zh": "臺東大學",
        "id": "way/230397297",
        "name": "臺東大學"
      }
    },
    {
      "geometry": {
        "type": "Point",
        "coordinates": [
          121.06644844671197,
          22.737397874853002
        ]
      },
      "type": "Feature",
      "id": "way/230398833",
      "properties": {
        "changeset": "34775355",
        "amenity": "university",
        "name:en": "National Taitung University",
        "uid": "3242613",
        "timestamp": "2015-10-21T11:13:25Z",
        "version": "5",
        "user": "Dotcom Jiang",
        "id": "way/230398833",
        "name": "台東大學"
      }
    },
    {
      "geometry": {
        "type": "Point",
        "coordinates": [
          121.4496570152697,
          25.17507159699452
        ]
      },
      "type": "Feature",
      "id": "way/235915330",
      "properties": {
        "website": "http://www.tku.edu.tw/",
        "changeset": "42829543",
        "amenity": "university",
        "name:en": "Tamkang University",
        "uid": "24561",
        "timestamp": "2016-10-12T12:47:30Z",
        "addr:housenumber": "151",
        "wikipedia": "zh:淡江大學",
        "version": "25",
        "user": "seke",
        "addr:postcode": "25137",
        "addr:street": "英專路",
        "name:zh": "淡江大學",
        "id": "way/235915330",
        "name": "淡江大學"
      }
    },
    {
      "geometry": {
        "type": "Point",
        "coordinates": [
          120.42943087685228,
          23.70225344986297
        ]
      },
      "type": "Feature",
      "id": "way/236358141",
      "properties": {
        "changeset": "17647174",
        "amenity": "university",
        "uid": "61835",
        "timestamp": "2013-09-03T04:57:19Z",
        "version": "1",
        "user": "pesder",
        "id": "way/236358141",
        "name": "虎尾科技大學第一教學區"
      }
    },
    {
      "geometry": {
        "type": "Point",
        "coordinates": [
          120.43320033772086,
          23.70153597632765
        ]
      },
      "type": "Feature",
      "id": "way/236358142",
      "properties": {
        "changeset": "17647174",
        "amenity": "university",
        "uid": "61835",
        "timestamp": "2013-09-03T04:57:19Z",
        "version": "1",
        "user": "pesder",
        "id": "way/236358142",
        "name": "虎尾科技大學第三教學區"
      }
    },
    {
      "geometry": {
        "type": "Point",
        "coordinates": [
          120.43094615435315,
          23.703226047286208
        ]
      },
      "type": "Feature",
      "id": "way/236358143",
      "properties": {
        "changeset": "37864886",
        "amenity": "university",
        "uid": "3038450",
        "timestamp": "2016-03-16T08:25:35Z",
        "version": "2",
        "user": "jytr1024",
        "id": "way/236358143",
        "name": "虎尾科技大學第二教學區"
      }
    },
    {
      "geometry": {
        "type": "Point",
        "coordinates": [
          120.43197144306541,
          23.700893044502656
        ]
      },
      "type": "Feature",
      "id": "way/236358144",
      "properties": {
        "changeset": "17647174",
        "amenity": "university",
        "uid": "61835",
        "timestamp": "2013-09-03T04:57:19Z",
        "version": "1",
        "user": "pesder",
        "id": "way/236358144",
        "name": "虎尾科技大學運動區"
      }
    },
    {
      "geometry": {
        "type": "Point",
        "coordinates": [
          121.74607300316943,
          24.746183182890505
        ]
      },
      "type": "Feature",
      "id": "way/237330506",
      "properties": {
        "changeset": "37611557",
        "amenity": "university",
        "uid": "504355",
        "timestamp": "2016-03-04T16:00:18Z",
        "version": "6",
        "user": "choliver59",
        "id": "way/237330506",
        "name": "國立宜蘭大學"
      }
    },
    {
      "geometry": {
        "type": "Point",
        "coordinates": [
          120.64523172257,
          24.18744810276973
        ]
      },
      "type": "Feature",
      "id": "way/240141259",
      "properties": {
        "addr:housenumber": "98",
        "changeset": "38142046",
        "amenity": "university",
        "name:en": "FCU Fuhsing Campus",
        "uid": "3694264",
        "addr:district": "西屯區",
        "timestamp": "2016-03-29T11:13:05Z",
        "addr:full": "40741臺中市西屯區福星北路98號",
        "addr:city": "臺中市",
        "version": "5",
        "user": "John Lin",
        "addr:postcode": "40741",
        "addr:street": "福星北路",
        "name:zh": "逢甲大學福星校區",
        "id": "way/240141259",
        "name": "逢甲大學福星校區"
      }
    },
    {
      "geometry": {
        "type": "Point",
        "coordinates": [
          120.42393252995089,
          23.702057254508322
        ]
      },
      "type": "Feature",
      "id": "way/240452249",
      "properties": {
        "changeset": "18171185",
        "amenity": "university",
        "uid": "61835",
        "timestamp": "2013-10-04T01:44:50Z",
        "version": "1",
        "user": "pesder",
        "id": "way/240452249",
        "name": "虎尾科技大學宿舍區"
      }
    },
    {
      "geometry": {
        "type": "Point",
        "coordinates": [
          121.40137454380704,
          25.019539022306486
        ]
      },
      "type": "Feature",
      "id": "way/241489678",
      "properties": {
        "website": "http://www.lhu.edu.tw",
        "changeset": "39141720",
        "amenity": "university",
        "name_1": "龍華科大",
        "uid": "2859698",
        "addr:district": "龜山區",
        "timestamp": "2016-05-06T11:39:55Z",
        "wheelchair": "limited",
        "addr:housenumber": "300",
        "wikipedia": "zh:龍華科技大學",
        "addr:city": "桃園市",
        "phone": "+886 2 8209 3211",
        "version": "7",
        "user": "assanges",
        "addr:postcode": "33306",
        "addr:street": "萬壽路一段",
        "id": "way/241489678",
        "name": "龍華科技大學"
      }
    },
    {
      "geometry": {
        "type": "Point",
        "coordinates": [
          120.68325873648924,
          24.150511506892833
        ]
      },
      "type": "Feature",
      "id": "way/241887218",
      "properties": {
        "changeset": "36218954",
        "amenity": "university",
        "uid": "1215520",
        "operator": "教育部",
        "id": "way/241887218",
        "addr:housenumber": "129",
        "addr:district": "北區",
        "wikipedia": "zh:國立臺中科技大學",
        "name": "國立臺中科技大學三民校區",
        "source": "Bing",
        "version": "7",
        "name:zh": "國立臺中科技大學三民校區",
        "website": "http://www.nutc.edu.tw/bin/home.php",
        "short_name": "臺中科大",
        "timestamp": "2015-12-28T13:07:30Z",
        "addr:full": "40401臺中市北區三民路三段129號",
        "phone": "+886 4 2219 5678",
        "user": "bananatw",
        "old_name": "國立臺中技術學院",
        "addr:street": "三民路三段",
        "name:en": "National Taichung University of Science and Technology",
        "addr:city": "臺中市",
        "addr:postcode": "40401",
        "addr:country": "TW"
      }
    },
    {
      "geometry": {
        "type": "Point",
        "coordinates": [
          120.22358037201218,
          22.997132549213543
        ]
      },
      "type": "Feature",
      "id": "way/251596055",
      "properties": {
        "building": "university",
        "changeset": "37713833",
        "uid": "1876658",
        "building:levels": "9",
        "timestamp": "2016-03-09T17:18:16Z",
        "addr:housenumber": "1",
        "official_name": "國立成功大學機械工程學系系館",
        "addr:city": "台南市",
        "version": "4",
        "user": "MuLinForest",
        "addr:postcode": "70101",
        "addr:street": "大學路",
        "id": "way/251596055",
        "name": "機械系館"
      }
    },
    {
      "geometry": {
        "type": "Point",
        "coordinates": [
          120.22248256612981,
          22.996858014077766
        ]
      },
      "type": "Feature",
      "id": "way/251597133",
      "properties": {
        "building": "university",
        "changeset": "37713833",
        "uid": "1876658",
        "toilets:disposal": "flush",
        "toilets": "yes",
        "timestamp": "2016-03-09T17:18:15Z",
        "addr:housenumber": "1",
        "official_name": "國立成功大學電機工程學系系館",
        "height": "35m",
        "toilets:access": "permissive",
        "version": "6",
        "addr:city": "台南市",
        "user": "MuLinForest",
        "addr:postcode": "70101",
        "toilets:wheelchair": "yes",
        "addr:street": "大學路",
        "id": "way/251597133",
        "name": "電機系館"
      }
    },
    {
      "geometry": {
        "type": "Point",
        "coordinates": [
          120.22354125204964,
          22.996264974345195
        ]
      },
      "type": "Feature",
      "id": "way/251630463",
      "properties": {
        "building": "yes",
        "changeset": "39039144",
        "uid": "1876658",
        "building:levels": "8",
        "timestamp": "2016-05-02T13:55:12Z",
        "addr:housenumber": "1",
        "height": "15",
        "version": "3",
        "addr:city": "臺南市",
        "user": "MuLinForest",
        "addr:postcode": "70101",
        "operator": "國立成功大學",
        "addr:street": "大學路",
        "id": "way/251630463",
        "name": "工學院及系統系館"
      }
    },
    {
      "geometry": {
        "type": "Point",
        "coordinates": [
          119.58270129067623,
          23.57441475273968
        ]
      },
      "type": "Feature",
      "id": "way/253357971",
      "properties": {
        "changeset": "19620441",
        "amenity": "university",
        "uid": "189328",
        "timestamp": "2013-12-24T16:46:18Z",
        "version": "1",
        "user": "Kagami",
        "id": "way/253357971",
        "name": "國立澎湖科技大學"
      }
    },
    {
      "geometry": {
        "type": "Point",
        "coordinates": [
          120.98791308390233,
          24.861847552091106
        ]
      },
      "type": "Feature",
      "id": "way/255012410",
      "properties": {
        "website": "http://www.must.edu.tw/",
        "changeset": "27179322",
        "amenity": "university",
        "name:en": "Minghsin University of Science and Technology",
        "uid": "1215520",
        "timestamp": "2014-12-02T13:46:22Z",
        "addr:housenumber": "1",
        "wikipedia": "zh:明新科技大學",
        "addr:state": "新竹縣",
        "addr:city": "新豐鄉",
        "phone": "+886-3-559-3142",
        "version": "3",
        "user": "bananatw",
        "addr:postcode": "30401",
        "addr:street": "新興路",
        "name:zh": "明新科技大學",
        "id": "way/255012410",
        "name": "明新科技大學"
      }
    },
    {
      "geometry": {
        "type": "Point",
        "coordinates": [
          121.47106329175594,
          25.13437161356708
        ]
      },
      "type": "Feature",
      "id": "way/256172848",
      "properties": {
        "addr:housenumber": "1號",
        "changeset": "41163479",
        "amenity": "university",
        "uid": "274857",
        "timestamp": "2016-08-01T10:07:14Z",
        "version": "4",
        "user": "Supaplex",
        "addr:street": "學園路",
        "id": "way/256172848",
        "name": "國立台北藝術大學"
      }
    },
    {
      "geometry": {
        "type": "Point",
        "coordinates": [
          121.5885769940021,
          23.994338881976272
        ]
      },
      "type": "Feature",
      "id": "way/256792310",
      "properties": {
        "website": "http://www.tcu.edu.tw/",
        "changeset": "34258201",
        "amenity": "university",
        "name:en": "Tzu Chi University",
        "uid": "274857",
        "addr:district": "花蓮市",
        "timestamp": "2015-09-26T08:34:54Z",
        "addr:full": "97004花蓮縣花蓮市中央路三段701號",
        "wikipedia": "zh:慈濟大學",
        "addr:city": "花蓮縣",
        "phone": "+886-3-8565301",
        "version": "7",
        "user": "Supaplex",
        "addr:postcode": "97004",
        "id": "way/256792310",
        "addr:housenumber": "701",
        "addr:street": "中央路三段",
        "name:zh": "慈濟大學",
        "addr:country": "TW",
        "name": "慈濟大學"
      }
    },
    {
      "geometry": {
        "type": "Point",
        "coordinates": [
          120.81285033264504,
          24.544667873222615
        ]
      },
      "type": "Feature",
      "id": "way/257251240",
      "properties": {
        "changeset": "37736075",
        "amenity": "university",
        "uid": "1215520",
        "alt_name": "聯大",
        "operator": "教育部",
        "id": "way/257251240",
        "addr:housenumber": "1",
        "addr:district": "苗栗市",
        "area": "yes",
        "wikipedia": "zh:國立聯合大學",
        "version": "8",
        "name:zh": "國立聯合大學",
        "website": "http://www.nuu.edu.tw/",
        "fax": "+886 37 381 049",
        "timestamp": "2016-03-10T14:58:57Z",
        "sorting_name": "NUU",
        "addr:full": "36003苗栗縣苗栗市聯大1號",
        "phone": "+886 37 381 000",
        "user": "bananatw",
        "old_name": "國立聯合技術學院",
        "name": "國立聯合大學",
        "name:en": "National United University",
        "addr:city": "苗栗縣",
        "ref": "A095Y0000Q",
        "addr:place": "聯大",
        "addr:postcode": "36003",
        "addr:country": "TW"
      }
    },
    {
      "geometry": {
        "type": "Point",
        "coordinates": [
          120.55040020703517,
          24.066609626072502
        ]
      },
      "type": "Feature",
      "id": "way/258342217",
      "properties": {
        "changeset": "35633612",
        "uid": "274857",
        "barrier": "wall",
        "timestamp": "2015-11-28T18:33:33Z",
        "version": "6",
        "user": "Supaplex",
        "id": "way/258342217"
      }
    },
    {
      "geometry": {
        "type": "Point",
        "coordinates": [
          121.51984626813034,
          25.11784121861698
        ]
      },
      "type": "Feature",
      "id": "way/258892621",
      "properties": {
        "changeset": "40173732",
        "uid": "3682557",
        "barrier": "wall",
        "timestamp": "2016-06-21T07:26:24Z",
        "version": "7",
        "user": "愛台玩",
        "id": "way/258892621"
      }
    },
    {
      "geometry": {
        "type": "Point",
        "coordinates": [
          118.40404306330818,
          24.498958542567152
        ]
      },
      "type": "Feature",
      "id": "way/259540948",
      "properties": {
        "changeset": "30882765",
        "amenity": "university",
        "uid": "2895132",
        "timestamp": "2015-05-07T19:21:02Z",
        "version": "5",
        "user": "jiangleon",
        "id": "way/259540948",
        "name": "國立金門大學金沙校區"
      }
    },
    {
      "geometry": {
        "type": "Point",
        "coordinates": [
          118.4019082911519,
          24.500883631678036
        ]
      },
      "type": "Feature",
      "id": "way/259540949",
      "properties": {
        "changeset": "20333835",
        "amenity": "university",
        "uid": "274857",
        "timestamp": "2014-02-02T13:19:22Z",
        "source": "Bing",
        "version": "1",
        "user": "Supaplex",
        "id": "way/259540949",
        "name": "銘傳大學金門分部"
      }
    },
    {
      "geometry": {
        "type": "Point",
        "coordinates": [
          120.65089455298643,
          24.122995442579473
        ]
      },
      "type": "Feature",
      "id": "way/260711120",
      "properties": {
        "addr:housenumber": "110",
        "changeset": "32199308",
        "amenity": "university",
        "name:en": "Chung Shan Medical University",
        "uid": "274857",
        "timestamp": "2015-06-25T07:43:54Z",
        "wikipedia": "zh:中山醫學大學",
        "addr:city": "台中市",
        "version": "4",
        "user": "Supaplex",
        "addr:postcode": "40201",
        "addr:street": "建國北路一段",
        "id": "way/260711120",
        "name": "中山醫學大學"
      }
    },
    {
      "geometry": {
        "type": "Point",
        "coordinates": [
          120.44260750699117,
          23.463785461731007
        ]
      },
      "type": "Feature",
      "id": "way/263052739",
      "properties": {
        "changeset": "38489839",
        "amenity": "university",
        "uid": "3811856",
        "timestamp": "2016-04-12T03:46:47Z",
        "version": "4",
        "user": "LeoWangWang",
        "id": "way/263052739",
        "name": "國立嘉義大學新民校區"
      }
    },
    {
      "geometry": {
        "type": "Point",
        "coordinates": [
          121.525446738071,
          25.042383517795432
        ]
      },
      "type": "Feature",
      "id": "way/263225304",
      "properties": {
        "changeset": "29183707",
        "uid": "274857",
        "barrier": "wall",
        "timestamp": "2015-03-01T18:52:41Z",
        "version": "5",
        "user": "Supaplex",
        "id": "way/263225304"
      }
    },
    {
      "geometry": {
        "type": "Point",
        "coordinates": [
          121.40238156005326,
          25.068550430797167
        ]
      },
      "type": "Feature",
      "id": "way/263810323",
      "properties": {
        "website": "http://www2.ntnu.edu.tw/",
        "changeset": "42429811",
        "amenity": "university",
        "name:en": "National Taiwan Normal University Linkou Campus",
        "uid": "274857",
        "area": "yes",
        "timestamp": "2016-09-25T18:54:25Z",
        "addr:housenumber": "2",
        "wikipedia": "zh:國立臺灣師範大學",
        "addr:city": "新北市",
        "phone": "+886 2 77148888",
        "name:ja": "台湾師範大学（林口キャンパス）",
        "version": "2",
        "user": "Supaplex",
        "addr:postcode": "24449",
        "addr:street": "仁愛路一段",
        "id": "way/263810323",
        "name": "國立臺灣師範大學林口校區"
      }
    },
    {
      "geometry": {
        "type": "Point",
        "coordinates": [
          121.26856787240536,
          24.877268058565036
        ]
      },
      "type": "Feature",
      "id": "way/264108666",
      "properties": {
        "changeset": "26076159",
        "amenity": "university",
        "alt_name": "中正嶺營區",
        "uid": "274857",
        "timestamp": "2014-10-14T16:36:28Z",
        "version": "5",
        "user": "Supaplex",
        "landuse": "military",
        "id": "way/264108666",
        "name": "國防大學中正嶺校區"
      }
    },
    {
      "geometry": {
        "type": "Point",
        "coordinates": [
          120.3757384729893,
          22.762368323481386
        ]
      },
      "type": "Feature",
      "id": "way/264306375",
      "properties": {
        "changeset": "39258905",
        "amenity": "university",
        "uid": "3949916",
        "timestamp": "2016-05-12T06:37:18Z",
        "version": "5",
        "user": "jchun",
        "id": "way/264306375",
        "name": "樹德科技大學"
      }
    },
    {
      "geometry": {
        "type": "Point",
        "coordinates": [
          121.46918674464258,
          25.134524683455094
        ]
      },
      "type": "Feature",
      "id": "way/265245741",
      "properties": {
        "changeset": "39314552",
        "amenity": "university",
        "uid": "274857",
        "addr:full:en": "No. 2, Xueyuan Rd., Beitou, 112 Taipei, Taiwan, R.O.C.",
        "id": "way/265245741",
        "addr:housenumber": "2",
        "addr:district": "北投區",
        "wikipedia": "zh:臺北城市科技大學",
        "name": "臺北城市科技大學",
        "source": "Bing",
        "version": "2",
        "website": "http://www.tpcu.edu.tw/",
        "fax": "+886 2 2896 5951",
        "timestamp": "2016-05-14T16:08:37Z",
        "addr:full": "112台北市北投區學園路2號",
        "phone": "+886 2 2892 7154",
        "user": "Supaplex",
        "old_name": "光武工專",
        "addr:street": "學園路",
        "name:en": "Taipei City University of Science and Technology",
        "addr:city": "台北市",
        "addr:postcode": "112"
      }
    },
    {
      "geometry": {
        "type": "Point",
        "coordinates": [
          120.45878123874516,
          23.488269727008497
        ]
      },
      "type": "Feature",
      "id": "way/269138323",
      "properties": {
        "changeset": "24810051",
        "amenity": "university",
        "uid": "274857",
        "timestamp": "2014-08-17T15:05:51Z",
        "version": "3",
        "user": "Supaplex",
        "id": "way/269138323",
        "name": "國立嘉義大學林森校區"
      }
    },
    {
      "geometry": {
        "type": "Point",
        "coordinates": [
          120.68022267444918,
          24.156563675257896
        ]
      },
      "type": "Feature",
      "id": "way/272610289",
      "properties": {
        "website": "http://www.cmu.edu.tw/",
        "changeset": "36218954",
        "amenity": "university",
        "name:en": "China Medical University",
        "uid": "1215520",
        "addr:district": "北區",
        "timestamp": "2015-12-28T13:07:29Z",
        "addr:full": "40402臺中市北區學士路91號",
        "addr:housenumber": "91",
        "addr:city": "臺中市",
        "phone": "+886 4 2205 3366",
        "version": "5",
        "user": "bananatw",
        "addr:postcode": "40402",
        "id": "way/272610289",
        "addr:street": "學士路",
        "name:zh": "中國醫藥大學",
        "addr:country": "TW",
        "name": "中國醫藥大學"
      }
    },
    {
      "geometry": {
        "type": "Point",
        "coordinates": [
          120.21722117510065,
          22.97623254280839
        ]
      },
      "type": "Feature",
      "id": "way/274793741",
      "properties": {
        "changeset": "25404014",
        "amenity": "university",
        "uid": "2324346",
        "timestamp": "2014-09-13T04:52:00Z",
        "wikipedia": "zh:國立臺南大學",
        "version": "2",
        "user": "tajvano",
        "id": "way/274793741",
        "name": "國立臺南大學榮譽教學中心"
      }
    },
    {
      "geometry": {
        "type": "Point",
        "coordinates": [
          120.78998606432869,
          24.53798875625031
        ]
      },
      "type": "Feature",
      "id": "way/276269759",
      "properties": {
        "addr:housenumber": "2",
        "changeset": "36916905",
        "amenity": "university",
        "alt_name": "聯大八甲校區",
        "uid": "3319547",
        "timestamp": "2016-01-31T13:45:43Z",
        "wheelchair": "yes",
        "addr:city": "苗栗市",
        "version": "3",
        "user": "s8321414",
        "addr:postcode": "36003",
        "id": "way/276269759",
        "addr:street": "聯大路",
        "addr:country": "TW",
        "name": "國立聯合大學八甲校區"
      }
    },
    {
      "geometry": {
        "type": "Point",
        "coordinates": [
          121.55529113937271,
          25.05076603292915
        ]
      },
      "type": "Feature",
      "id": "way/277600926",
      "properties": {
        "addr:housenumber": "27",
        "changeset": "39314552",
        "amenity": "university",
        "uid": "274857",
        "addr:district": "松山區",
        "timestamp": "2016-05-14T16:08:37Z",
        "wheelchair": "yes",
        "addr:full": "台北市松山區南京東路四段120巷27號",
        "addr:city": "台北市",
        "version": "6",
        "user": "Supaplex",
        "toilets:wheelchair": "yes",
        "addr:street": "南京東路四段120巷",
        "id": "way/277600926",
        "name": "育達大學台北校區"
      }
    },
    {
      "geometry": {
        "type": "Point",
        "coordinates": [
          121.57161573812607,
          23.99952198112833
        ]
      },
      "type": "Feature",
      "id": "way/277760571",
      "properties": {
        "changeset": "34210336",
        "amenity": "university",
        "uid": "274857",
        "timestamp": "2015-09-23T17:09:00Z",
        "version": "4",
        "user": "Supaplex",
        "id": "way/277760571",
        "name": "慈濟大學文學部"
      }
    },
    {
      "geometry": {
        "type": "Point",
        "coordinates": [
          121.575926911643,
          23.997108564971523
        ]
      },
      "type": "Feature",
      "id": "way/281749480",
      "properties": {
        "changeset": "22375945",
        "amenity": "university",
        "uid": "274857",
        "timestamp": "2014-05-16T17:33:57Z",
        "version": "2",
        "user": "Supaplex",
        "id": "way/281749480",
        "name": "連接道路＿"
      }
    },
    {
      "geometry": {
        "type": "Point",
        "coordinates": [
          120.68687413542898,
          24.04714478506096
        ]
      },
      "type": "Feature",
      "id": "way/284610342",
      "properties": {
        "changeset": "22581595",
        "amenity": "university",
        "uid": "1439333",
        "timestamp": "2014-05-27T12:55:43Z",
        "version": "1",
        "user": "Littlebtc",
        "id": "way/284610342",
        "name": "亞洲大學"
      }
    },
    {
      "geometry": {
        "type": "Point",
        "coordinates": [
          121.0235107794215,
          24.812253357702375
        ]
      },
      "type": "Feature",
      "id": "way/286611914",
      "properties": {
        "changeset": "35401036",
        "amenity": "university",
        "uid": "3308706",
        "timestamp": "2015-11-18T10:44:38Z",
        "version": "4",
        "user": "上扇若水",
        "id": "way/286611914",
        "name": "交通大學客家文化學院"
      }
    },
    {
      "geometry": {
        "type": "Point",
        "coordinates": [
          121.6915440023986,
          24.980997476695613
        ]
      },
      "type": "Feature",
      "id": "way/287104550",
      "properties": {
        "website": "http://www.hfu.edu.tw",
        "changeset": "42944381",
        "amenity": "university",
        "name:en": "Huafan University",
        "uid": "2859698",
        "addr:housename": "華梵大學",
        "timestamp": "2016-10-16T19:53:53Z",
        "addr:full": "22301新北市石碇區華梵路一號",
        "wikipedia": "zh:華梵大學",
        "addr:city": "新北市石碇區",
        "phone": "+886-2-2663-2102",
        "name:ja": "華梵大学",
        "version": "4",
        "user": "assanges",
        "addr:postcode": "22301",
        "addr:housenumber": "1",
        "addr:street": "華梵路",
        "name:zh": "華梵大學",
        "id": "way/287104550",
        "name": "華梵大學"
      }
    },
    {
      "geometry": {
        "type": "Point",
        "coordinates": [
          120.46782839823227,
          22.90472263768097
        ]
      },
      "type": "Feature",
      "id": "way/289560814",
      "properties": {
        "changeset": "23124955",
        "amenity": "university",
        "uid": "189328",
        "timestamp": "2014-06-24T15:11:30Z",
        "version": "1",
        "user": "Kagami",
        "id": "way/289560814",
        "name": "實踐大學高雄校區"
      }
    },
    {
      "geometry": {
        "type": "Point",
        "coordinates": [
          120.71192082236186,
          24.096004633416257
        ]
      },
      "type": "Feature",
      "id": "way/292837927",
      "properties": {
        "changeset": "33849914",
        "amenity": "university",
        "uid": "1439333",
        "timestamp": "2015-09-07T08:07:10Z",
        "version": "2",
        "user": "Littlebtc",
        "id": "way/292837927",
        "name": "修平科技大學"
      }
    },
    {
      "geometry": {
        "type": "Point",
        "coordinates": [
          120.60561789069472,
          23.958076527035505
        ]
      },
      "type": "Feature",
      "id": "way/319236306",
      "properties": {
        "changeset": "27752245",
        "amenity": "university",
        "uid": "1942781",
        "timestamp": "2014-12-28T12:40:53Z",
        "version": "1",
        "user": "yellowsoar",
        "id": "way/319236306",
        "name": "私立中州科技大學"
      }
    },
    {
      "geometry": {
        "type": "Point",
        "coordinates": [
          120.6022409217803,
          24.134163395669272
        ]
      },
      "type": "Feature",
      "id": "way/320328088",
      "properties": {
        "changeset": "33348380",
        "amenity": "university",
        "uid": "1215520",
        "timestamp": "2015-08-15T08:40:28Z",
        "version": "3",
        "user": "bananatw",
        "id": "way/320328088",
        "name": "嶺東科技大學寶文校區"
      }
    },
    {
      "geometry": {
        "type": "Point",
        "coordinates": [
          121.54400575808832,
          25.012883824118433
        ]
      },
      "type": "Feature",
      "id": "way/323467323",
      "properties": {
        "changeset": "32541030",
        "uid": "274857",
        "barrier": "wall",
        "timestamp": "2015-07-10T11:54:01Z",
        "version": "2",
        "user": "Supaplex",
        "id": "way/323467323"
      }
    },
    {
      "geometry": {
        "type": "Point",
        "coordinates": [
          121.09005695230881,
          24.778349345709106
        ]
      },
      "type": "Feature",
      "id": "way/324439498",
      "properties": {
        "changeset": "42070449",
        "amenity": "university",
        "uid": "2554385",
        "timestamp": "2016-09-11T03:59:28Z",
        "version": "2",
        "user": "j123er",
        "id": "way/324439498",
        "name": "大華科技大學"
      }
    },
    {
      "geometry": {
        "type": "Point",
        "coordinates": [
          121.72954583607503,
          24.820850923703524
        ]
      },
      "type": "Feature",
      "id": "way/324900785",
      "properties": {
        "changeset": "40512680",
        "amenity": "university",
        "name:en": "Tamkang University Lanyang Campus",
        "uid": "3682557",
        "timestamp": "2016-07-06T02:04:13Z",
        "version": "3",
        "user": "愛台玩",
        "name:zh": "淡江大學蘭陽校區",
        "id": "way/324900785",
        "name": "淡江大學蘭陽校區"
      }
    },
    {
      "geometry": {
        "type": "Point",
        "coordinates": [
          121.72664058392604,
          24.815933412505707
        ]
      },
      "type": "Feature",
      "id": "way/324900796",
      "properties": {
        "changeset": "40512680",
        "amenity": "university",
        "uid": "3682557",
        "timestamp": "2016-07-06T02:04:12Z",
        "version": "2",
        "user": "愛台玩",
        "operator": "佛光大學",
        "id": "way/324900796",
        "name": "佛光大學"
      }
    },
    {
      "geometry": {
        "type": "Point",
        "coordinates": [
          120.29500125138368,
          22.925213966614596
        ]
      },
      "type": "Feature",
      "id": "way/325853963",
      "properties": {
        "changeset": "33992536",
        "amenity": "university",
        "uid": "274857",
        "timestamp": "2015-09-13T05:12:46Z",
        "version": "2",
        "user": "Supaplex",
        "id": "way/325853963",
        "name": "交通大學台南校區(歸仁校區)"
      }
    },
    {
      "geometry": {
        "type": "Point",
        "coordinates": [
          121.5320949116432,
          25.028474812136224
        ]
      },
      "type": "Feature",
      "id": "way/328944011",
      "properties": {
        "changeset": "28931036",
        "uid": "274857",
        "barrier": "wall",
        "timestamp": "2015-02-18T12:09:57Z",
        "version": "1",
        "user": "Supaplex",
        "id": "way/328944011"
      }
    },
    {
      "geometry": {
        "type": "Point",
        "coordinates": [
          121.53985924223674,
          25.056515504334463
        ]
      },
      "type": "Feature",
      "id": "way/329018149",
      "properties": {
        "changeset": "28939761",
        "uid": "274857",
        "barrier": "wall",
        "timestamp": "2015-02-18T18:39:23Z",
        "version": "1",
        "user": "Supaplex",
        "id": "way/329018149"
      }
    },
    {
      "geometry": {
        "type": "Point",
        "coordinates": [
          120.55773848607656,
          23.679690323189618
        ]
      },
      "type": "Feature",
      "id": "way/329134732",
      "properties": {
        "changeset": "28957761",
        "amenity": "university",
        "uid": "1439333",
        "timestamp": "2015-02-19T14:51:51Z",
        "version": "1",
        "user": "Littlebtc",
        "id": "way/329134732",
        "name": "環球科技大學嘉東校區"
      }
    },
    {
      "geometry": {
        "type": "Point",
        "coordinates": [
          120.60729065119128,
          23.71148737058201
        ]
      },
      "type": "Feature",
      "id": "way/329134733",
      "properties": {
        "changeset": "28957761",
        "amenity": "university",
        "uid": "1439333",
        "timestamp": "2015-02-19T14:51:51Z",
        "version": "1",
        "user": "Littlebtc",
        "id": "way/329134733",
        "name": "環球科技大學湖山校區"
      }
    },
    {
      "geometry": {
        "type": "Point",
        "coordinates": [
          120.26431270486722,
          22.62841442935872
        ]
      },
      "type": "Feature",
      "id": "way/329853339",
      "properties": {
        "addr:housenumber": "70",
        "changeset": "29058685",
        "amenity": "university",
        "uid": "189328",
        "timestamp": "2015-02-24T03:10:16Z",
        "addr:city": "高雄市",
        "version": "2",
        "user": "Kagami",
        "id": "way/329853339",
        "addr:street": "蓮海路",
        "addr:country": "TW",
        "name": "國立中山大學"
      }
    },
    {
      "geometry": {
        "type": "Point",
        "coordinates": [
          118.32212396067501,
          24.448780831636917
        ]
      },
      "type": "Feature",
      "id": "way/344757304",
      "properties": {
        "changeset": "42081733",
        "amenity": "university",
        "uid": "4561717",
        "timestamp": "2016-09-11T15:51:56Z",
        "version": "2",
        "user": "游能鈞",
        "name:zh": "金門大學",
        "id": "way/344757304",
        "name": "國立金門大學"
      }
    },
    {
      "geometry": {
        "type": "Point",
        "coordinates": [
          120.6056763812757,
          24.179519938172376
        ]
      },
      "type": "Feature",
      "id": "way/347094469",
      "properties": {
        "changeset": "33683092",
        "amenity": "university",
        "uid": "2334228",
        "postal_code": "40704",
        "id": "way/347094469",
        "addr:housenumber": "1727",
        "addr:district": "西屯區",
        "wikipedia": "zh:東海大學 (台灣)",
        "name": "東海大學",
        "version": "21",
        "name:zh": "東海大學",
        "website": "http://www.thu.edu.tw/",
        "fax": "+886-4-2359-0361",
        "short_name": "THU",
        "timestamp": "2015-08-30T13:55:34Z",
        "addr:full": "40704臺中市西屯區臺灣大道四段1727號",
        "phone": "+886-4-2359-0121",
        "user": "燈阿燈",
        "addr:street": "臺灣大道四段",
        "name:en": "Tunghai University",
        "addr:city": "臺中市",
        "addr:postcode": "40704"
      }
    },
    {
      "geometry": {
        "type": "Point",
        "coordinates": [
          120.66694003231571,
          24.143844121595745
        ]
      },
      "type": "Feature",
      "id": "way/360989632",
      "properties": {
        "changeset": "32690778",
        "amenity": "university",
        "uid": "2659333",
        "timestamp": "2015-07-17T08:20:48Z",
        "version": "1",
        "user": "bird_peng",
        "id": "way/360989632",
        "name": "台中教育大學英才校區"
      }
    },
    {
      "geometry": {
        "type": "Point",
        "coordinates": [
          120.59916392320827,
          24.000143741992822
        ]
      },
      "type": "Feature",
      "id": "way/367793250",
      "properties": {
        "changeset": "33617241",
        "amenity": "university",
        "uid": "1439333",
        "timestamp": "2015-08-27T10:49:32Z",
        "source": "NLSC",
        "version": "1",
        "user": "Littlebtc",
        "id": "way/367793250",
        "name": "大葉大學"
      }
    },
    {
      "geometry": {
        "type": "Point",
        "coordinates": [
          121.53818754990277,
          25.025994575850312
        ]
      },
      "type": "Feature",
      "id": "way/375707905",
      "properties": {
        "website": "http://www.sce.pccu.edu.tw/",
        "changeset": "34698413",
        "amenity": "university",
        "name:en": "School of Continuing Education, Chinese Culture University",
        "uid": "274857",
        "addr:district": "大安區",
        "timestamp": "2015-10-17T17:43:42Z",
        "addr:full": "10659台北市建國南路二段231號",
        "addr:housenumber": "231",
        "opening_hours": "Mo-Sa 09:00-21:00,Su 09:00-17:00",
        "addr:city": "台北市",
        "phone": "+886 2 2700 5858",
        "version": "1",
        "user": "Supaplex",
        "addr:postcode": "10659",
        "operator": "中國文化大學",
        "addr:street": "建國南路二段",
        "id": "way/375707905",
        "name": "中國文化大學推廣教育部建國本部"
      }
    },
    {
      "geometry": {
        "type": "Point",
        "coordinates": [
          121.43517446285506,
          25.17481181937404
        ]
      },
      "type": "Feature",
      "id": "way/412994638",
      "properties": {
        "changeset": "43448146",
        "uid": "274857",
        "barrier": "wall",
        "timestamp": "2016-11-06T18:52:51Z",
        "version": "2",
        "user": "Supaplex",
        "id": "way/412994638"
      }
    },
    {
      "geometry": {
        "type": "Point",
        "coordinates": [
          121.39035773612432,
          25.03058228067244
        ]
      },
      "type": "Feature",
      "id": "way/415670706",
      "properties": {
        "addr:housenumber": "261",
        "changeset": "39157188",
        "amenity": "university",
        "name:en": "Chang Gung University of Science and Technology (Linkou Campus)",
        "uid": "2859698",
        "timestamp": "2016-05-07T07:36:05Z",
        "addr:city": "桃園市龜山區",
        "version": "3",
        "user": "assanges",
        "addr:postcode": "33301",
        "operator": "長庚科技大學",
        "addr:street": "文化一路",
        "name:zh": "長庚科技大學林口校區",
        "id": "way/415670706",
        "name": "長庚科技大學林口校區"
      }
    },
    {
      "geometry": {
        "type": "Point",
        "coordinates": [
          121.60998993925278,
          25.07594552870648
        ]
      },
      "type": "Feature",
      "id": "way/418576265",
      "properties": {
        "website": "http://web.knjc.edu.tw/bin/home.php",
        "changeset": "39366383",
        "amenity": "university",
        "uid": "274857",
        "addr:district": "內湖區",
        "timestamp": "2016-05-17T02:16:48Z",
        "id": "way/418576265",
        "addr:full": "114台灣台北市內湖區康寧路三段75巷137號",
        "wikipedia": "zh:康寧大學",
        "addr:city": "台北市",
        "phone": "+886-2-2632-1181",
        "version": "2",
        "user": "Supaplex",
        "addr:postcode": "114",
        "operator": "康寧學校財團法人康寧大學(台北校區)",
        "addr:housenumber": "137",
        "addr:street": "康寧路三段75巷",
        "addr:country": "TW",
        "name": "康寧大學"
      }
    },
    {
      "geometry": {
        "type": "Point",
        "coordinates": [
          120.49152228109246,
          23.57028480920645
        ]
      },
      "type": "Feature",
      "id": "way/425917573",
      "properties": {
        "website": "http://www.nhu.edu.tw/",
        "changeset": "42566914",
        "amenity": "university",
        "name:en": "Nanhua University",
        "uid": "274857",
        "addr:district": "大林鎮",
        "timestamp": "2016-10-01T16:57:56Z",
        "addr:full": "嘉義縣大林鎮中坑里南華路一段55號",
        "wikipedia": "zh:南華大學 (臺灣)",
        "addr:postcode": "62249",
        "addr:city": "嘉義縣",
        "phone": "+886 5 272 1001",
        "version": "2",
        "user": "Supaplex",
        "addr:village": "中坑里",
        "old_name": "南華管理學院",
        "addr:housenumber": "55",
        "addr:street": "南華路一段",
        "id": "way/425917573",
        "name": "南華大學"
      }
    },
    {
      "geometry": {
        "type": "Point",
        "coordinates": [
          120.28633756260116,
          22.807915806775906
        ]
      },
      "type": "Feature",
      "id": "way/433034770",
      "properties": {
        "addr:housenumber": "6",
        "changeset": "41012458",
        "amenity": "university",
        "uid": "274857",
        "addr:district": "岡山區",
        "timestamp": "2016-07-25T13:41:58Z",
        "addr:full": "82063高雄市岡山區岡山北路6號",
        "official_name": "慈濟大學岡山社會教育推廣中心",
        "addr:city": "高雄市",
        "version": "1",
        "user": "Supaplex",
        "addr:postcode": "82063",
        "addr:street": "岡山北路",
        "id": "way/433034770",
        "name": "岡山社教中心"
      }
    },
    {
      "geometry": {
        "type": "Point",
        "coordinates": [
          121.395625951642,
          25.081498329812618
        ]
      },
      "type": "Feature",
      "id": "way/444259440",
      "properties": {
        "website": "http://www.hwu.edu.tw/",
        "changeset": "42421709",
        "amenity": "university",
        "name:en": "Hsing Wu University",
        "uid": "2859698",
        "short_name": "醒吾科大",
        "timestamp": "2016-09-25T11:49:41Z",
        "addr:housenumber": "101",
        "addr:postcode": "244",
        "addr:city": "新北市林口區",
        "phone": "+886 2 2601 0748",
        "version": "1",
        "user": "assanges",
        "old_name": "醒吾技術學院",
        "operator": "醒吾學校財團法人",
        "addr:street": "粉寮路一段",
        "name:zh": "醒吾科技大學",
        "id": "way/444259440",
        "name": "醒吾科技大學"
      }
    },
    {
      "geometry": {
        "type": "Point",
        "coordinates": [
          121.54606345898597,
          25.093500160089157
        ]
      },
      "type": "Feature",
      "id": "way/453934978",
      "properties": {
        "building": "yes",
        "changeset": "43721851",
        "uid": "4855694",
        "timestamp": "2016-11-17T08:55:11Z",
        "version": "1",
        "user": "andrewyu",
        "id": "way/453934978",
        "name": "柚芳樓"
      }
    }
  ]
}
