{
  "type": "FeatureCollection",
  "features": [
    {
      "geometry": {
        "type": "Point",
        "coordinates": [
          120.2927503967791,
          22.70856124111539
        ]
      },
      "type": "Feature",
      "id": "way/125032817",
      "properties": {
        "shop": "convenience",
        "changeset": "17148759",
        "amenity": "fuel",
        "uid": "1595400",
        "fuel:diesel": "no",
        "fuel:biodiesel": "no",
        "timestamp": "2013-07-30T07:10:55Z",
        "brand": "台灣中油",
        "id": "way/125032817",
        "fuel:octane_98": "yes",
        "version": "2",
        "user": "ezjerry",
        "opening_hours": "06:30-22:00",
        "operator": "台灣中油",
        "fuel:octane_92": "yes",
        "fuel:octane_95": "yes",
        "name": "中油右昌軍校路站",
        "area": 1076.8815590215559
      }
    },
    {
      "geometry": {
        "type": "Point",
        "coordinates": [
          120.27420742073605,
          22.847477935992497
        ]
      },
      "type": "Feature",
      "id": "way/255625077",
      "properties": {
        "shop": "convenience",
        "changeset": "32378189",
        "uid": "274857",
        "timestamp": "2015-07-03T02:38:06Z",
        "building": "yes",
        "version": "2",
        "user": "Supaplex",
        "id": "way/255625077",
        "name": "萊爾富",
        "area": 967.9515933993941
      }
    },
    {
      "geometry": {
        "type": "Point",
        "coordinates": [
          120.51840401446962,
          24.078652108876934
        ]
      },
      "type": "Feature",
      "id": "way/283358357",
      "properties": {
        "shop": "convenience",
        "changeset": "41698572",
        "uid": "1439333",
        "timestamp": "2016-08-25T19:41:42Z",
        "building": "yes",
        "version": "2",
        "user": "Littlebtc",
        "branch": "彰化線東店",
        "opening_hours": "24/7",
        "id": "way/283358357",
        "name": "全家便利商店",
        "area": 811.637451060416
      }
    },
    {
      "geometry": {
        "type": "Point",
        "coordinates": [
          120.71624108112394,
          22.06078366644456
        ]
      },
      "type": "Feature",
      "id": "way/304037695",
      "properties": {
        "shop": "convenience",
        "changeset": "49377724",
        "uid": "1439333",
        "timestamp": "2017-06-08T19:33:38Z",
        "version": "3",
        "user": "Littlebtc",
        "id": "way/304037695",
        "name": "7-Eleven",
        "area": 2230.7907594922276
      }
    },
    {
      "geometry": {
        "type": "Point",
        "coordinates": [
          120.47232271810688,
          23.34700152417084
        ]
      },
      "type": "Feature",
      "id": "way/318033993",
      "properties": {
        "shop": "convenience",
        "changeset": "27582615",
        "name:en": "7-Eleven",
        "uid": "2039885",
        "timestamp": "2014-12-20T05:41:37Z",
        "building": "yes",
        "version": "1",
        "user": "holdenhk",
        "id": "way/318033993",
        "name": "7-Eleven",
        "area": 920.4315837336715
      }
    },
    {
      "geometry": {
        "type": "Point",
        "coordinates": [
          120.88123950041614,
          22.291562549978657
        ]
      },
      "type": "Feature",
      "id": "way/326365736",
      "properties": {
        "shop": "convenience",
        "changeset": "42808293",
        "uid": "3526564",
        "timestamp": "2016-10-11T17:21:32Z",
        "building": "yes",
        "version": "2",
        "user": "yurasi",
        "id": "way/326365736",
        "name": "7-Eleven",
        "area": 1291.9885884350597
      }
    },
    {
      "geometry": {
        "type": "Point",
        "coordinates": [
          120.8737234830056,
          24.449070393986123
        ]
      },
      "type": "Feature",
      "id": "way/335588912",
      "properties": {
        "shop": "convenience",
        "changeset": "40764593",
        "uid": "1439333",
        "timestamp": "2016-07-15T16:57:52Z",
        "building": "yes",
        "addr:city": "苗栗縣大湖鄉",
        "phone": "+886 37 992 824",
        "version": "2",
        "user": "Littlebtc",
        "branch": "新雪霸門市",
        "addr:housenumber": "39",
        "operator": "統一超商",
        "addr:street": "富興村1鄰水尾",
        "id": "way/335588912",
        "name": "7-Eleven",
        "area": 1017.5360125180208
      }
    },
    {
      "geometry": {
        "type": "Point",
        "coordinates": [
          120.69671308850089,
          24.322845067335358
        ]
      },
      "type": "Feature",
      "id": "way/361494330",
      "properties": {
        "shop": "convenience",
        "changeset": "32766682",
        "uid": "1437501",
        "timestamp": "2015-07-21T00:53:29Z",
        "building": "yes",
        "version": "1",
        "user": "Proms",
        "id": "way/361494330",
        "name": "萊爾富",
        "area": 1499.8229307830672
      }
    },
    {
      "geometry": {
        "type": "Point",
        "coordinates": [
          121.71711591911142,
          25.149836694903936
        ]
      },
      "type": "Feature",
      "id": "way/368016283",
      "properties": {
        "shop": "convenience",
        "changeset": "33648684",
        "uid": "2334228",
        "timestamp": "2015-08-28T17:22:06Z",
        "addr:housenumber": "17",
        "building": "commercial",
        "addr:city": "基隆市中山區",
        "phone": "02-77462570",
        "version": "1",
        "user": "燈阿燈",
        "addr:postcode": "203",
        "operator": "全家便利商店股份有限公司",
        "addr:street": "中和路168巷2弄",
        "id": "way/368016283",
        "name": "全家便利商店",
        "area": 878.1247783936948
      }
    },
    {
      "geometry": {
        "type": "Point",
        "coordinates": [
          121.74435806701284,
          25.132267526664016
        ]
      },
      "type": "Feature",
      "id": "way/368358481",
      "properties": {
        "shop": "convenience",
        "changeset": "33713894",
        "uid": "2334228",
        "timestamp": "2015-08-31T20:51:00Z",
        "building": "yes",
        "version": "2",
        "user": "燈阿燈",
        "id": "way/368358481",
        "name": "K-Market",
        "area": 816.1548015602272
      }
    },
    {
      "geometry": {
        "type": "Point",
        "coordinates": [
          121.36803549379073,
          25.025053282144786
        ]
      },
      "type": "Feature",
      "id": "way/431505940",
      "properties": {
        "shop": "convenience",
        "changeset": "40794924",
        "uid": "2859698",
        "timestamp": "2016-07-17T10:10:02Z",
        "building": "yes",
        "version": "1",
        "user": "assanges",
        "id": "way/431505940",
        "name": "7-Eleven",
        "area": 1361.4334432936166
      }
    },
    {
      "geometry": {
        "type": "Point",
        "coordinates": [
          120.24767500236646,
          23.021544774762937
        ]
      },
      "type": "Feature",
      "id": "way/531362325",
      "properties": {
        "building": "yes",
        "changeset": "52776344",
        "uid": "544936",
        "shop": "convenience",
        "timestamp": "2017-10-10T01:49:03Z",
        "version": "1",
        "user": "CYL",
        "id": "way/531362325",
        "name": "全聯",
        "area": 813.5401056951821
      }
    }
  ]
}
